locator_domain,page_url,location_name,street_address,city,state,zip,store_number,phone,latitude,longitude,hours_of_operation,country_code,location_type
key.com,https://www.key.com/loc/DirectorServlet?action=getEntities&entity=BRCH&entity=ATM&entity=MCD&lat=38.833797454833984&lng=-104.82144927978516&distance=1000&callback=myJsonpCallback,Veterans Convenience Store,145 N Spruce St,Colorado Springs,CO,80905,ATMP333155,<MISSING>,38.836793,-104.832129,12:00am - 12:00am Sun-Sat,USA,ATM
key.com,https://www.key.com/loc/DirectorServlet?action=getEntities&entity=BRCH&entity=ATM&entity=MCD&lat=38.833797454833984&lng=-104.82144927978516&distance=1000&callback=myJsonpCallback,Walgreens,350 N Union Blvd,Colorado Springs,CO,80909,ATMWG005547,<MISSING>,38.837676,-104.795526,12:00am - 12:00am Sun-Sat,USA,ATM
key.com,https://www.key.com/loc/DirectorServlet?action=getEntities&entity=BRCH&entity=ATM&entity=MCD&lat=38.833797454833984&lng=-104.82144927978516&distance=1000&callback=myJsonpCallback,Broadmoor - Skyway,1521 S 8th St,Colorado Springs,CO,80905,BRCH06180042,719-471-1300,38.812210,-104.840250,9:00am - 5:00pm Mon - Thu 9:00am - 6:00pm Fri,USA,branch
key.com,https://www.key.com/loc/DirectorServlet?action=getEntities&entity=BRCH&entity=ATM&entity=MCD&lat=38.833797454833984&lng=-104.82144927978516&distance=1000&callback=myJsonpCallback,Broadmoor/Skyway,1521 S 8th St,Colorado Springs,CO,80905,ATMKB1930,<MISSING>,38.812267,-104.840480,24 Hour Access,USA,ATM
key.com,https://www.key.com/loc/DirectorServlet?action=getEntities&entity=BRCH&entity=ATM&entity=MCD&lat=38.833797454833984&lng=-104.82144927978516&distance=1000&callback=myJsonpCallback,Walgreens,625 N 19th St,Colorado Springs,CO,80904,ATMWA517777,<MISSING>,38.848579,-104.849459,12:00am - 12:00am Sun-Sat,USA,ATM
key.com,https://www.key.com/loc/DirectorServlet?action=getEntities&entity=BRCH&entity=ATM&entity=MCD&lat=38.833797454833984&lng=-104.82144927978516&distance=1000&callback=myJsonpCallback,Walgreens,1855 Southgate Rd,Colorado Springs,CO,80906,ATMWG009767,<MISSING>,38.806525,-104.820736,12:00am - 12:00am Sun-Sat,USA,ATM
key.com,https://www.key.com/loc/DirectorServlet?action=getEntities&entity=BRCH&entity=ATM&entity=MCD&lat=38.833797454833984&lng=-104.82144927978516&distance=1000&callback=myJsonpCallback,Safeway,1920 S Nevada Ave,Colorado Springs,CO,80906,ATMSW510007,<MISSING>,38.806240,-104.823414,12:00am - 12:00am Sun-Sat,USA,ATM
key.com,https://www.key.com/loc/DirectorServlet?action=getEntities&entity=BRCH&entity=ATM&entity=MCD&lat=38.833797454833984&lng=-104.82144927978516&distance=1000&callback=myJsonpCallback,Veteran's Convenience Store,1910 E Fountain Blvd,Colorado Springs,CO,80910,ATMP436026,<MISSING>,38.817742,-104.791647,12:00am - 12:00am Sun-Sat,USA,ATM
key.com,https://www.key.com/loc/DirectorServlet?action=getEntities&entity=BRCH&entity=ATM&entity=MCD&lat=38.833797454833984&lng=-104.82144927978516&distance=1000&callback=myJsonpCallback,Safeway,2210 N Wahsatch Ave,Colorado Springs,CO,80907,ATMSW510039,<MISSING>,38.864547,-104.817317,12:00am - 12:00am Sun-Sat,USA,ATM
key.com,https://www.key.com/loc/DirectorServlet?action=getEntities&entity=BRCH&entity=ATM&entity=MCD&lat=38.833797454833984&lng=-104.82144927978516&distance=1000&callback=myJsonpCallback,Walgreens,303 S Circle Dr,Colorado Springs,CO,80910,ATMWG005794,<MISSING>,38.825995,-104.779376,12:00am - 12:00am Sun-Sat,USA,ATM
key.com,https://www.key.com/loc/DirectorServlet?action=getEntities&entity=BRCH&entity=ATM&entity=MCD&lat=38.833797454833984&lng=-104.82144927978516&distance=1000&callback=myJsonpCallback,Save A Lot,405 South Circle,Colorado Springs,CO,80910,ATMRT37063,<MISSING>,38.824766,-104.779369,12:00am - 12:00am Sun-Sat,USA,ATM
key.com,https://www.key.com/loc/DirectorServlet?action=getEntities&entity=BRCH&entity=ATM&entity=MCD&lat=38.833797454833984&lng=-104.82144927978516&distance=1000&callback=myJsonpCallback,Loaf N Jug,2802 E Pikes Peak Ave,Colorado Springs,CO,80909,ATMKR002542,<MISSING>,38.833238,-104.775397,12:00am - 12:00am Sun-Sat,USA,ATM
key.com,https://www.key.com/loc/DirectorServlet?action=getEntities&entity=BRCH&entity=ATM&entity=MCD&lat=38.833797454833984&lng=-104.82144927978516&distance=1000&callback=myJsonpCallback,Cvs,445 N Circle Dr,Colorado Springs,CO,80909,ATMVC001002,<MISSING>,38.840462,-104.775771,12:00am - 12:00am Sun-Sat,USA,ATM
key.com,https://www.key.com/loc/DirectorServlet?action=getEntities&entity=BRCH&entity=ATM&entity=MCD&lat=38.833797454833984&lng=-104.82144927978516&distance=1000&callback=myJsonpCallback,Walgreens,920 N Circle Dr,Colorado Springs,CO,80909,ATMWG004043,<MISSING>,38.846532,-104.776553,12:00am - 12:00am Sun-Sat,USA,ATM
key.com,https://www.key.com/loc/DirectorServlet?action=getEntities&entity=BRCH&entity=ATM&entity=MCD&lat=38.833797454833984&lng=-104.82144927978516&distance=1000&callback=myJsonpCallback,Walgreens,2921 N Nevada Ave,Colorado Springs,CO,80907,ATMWG003584,<MISSING>,38.873789,-104.818887,12:00am - 12:00am Sun-Sat,USA,ATM
key.com,https://www.key.com/loc/DirectorServlet?action=getEntities&entity=BRCH&entity=ATM&entity=MCD&lat=38.833797454833984&lng=-104.82144927978516&distance=1000&callback=myJsonpCallback,Safeway,1121 N Circle Dr,Colorado Springs,CO,80909,ATMSW000930,<MISSING>,38.848260,-104.772339,12:00am - 12:00am Sun-Sat,USA,ATM
key.com,https://www.key.com/loc/DirectorServlet?action=getEntities&entity=BRCH&entity=ATM&entity=MCD&lat=38.833797454833984&lng=-104.82144927978516&distance=1000&callback=myJsonpCallback,Target,1630 Cheyenne Mountain Blvd,Colorado Springs,CO,80906,ATMTG005837,<MISSING>,38.792962,-104.801591,12:00am - 12:00am Sun-Sat,USA,ATM
key.com,https://www.key.com/loc/DirectorServlet?action=getEntities&entity=BRCH&entity=ATM&entity=MCD&lat=38.833797454833984&lng=-104.82144927978516&distance=1000&callback=myJsonpCallback,Walgreens,3143 W Colorado Ave,Colorado Springs,CO,80904,ATMWG001863,<MISSING>,38.853795,-104.874338,12:00am - 12:00am Sun-Sat,USA,ATM
key.com,https://www.key.com/loc/DirectorServlet?action=getEntities&entity=BRCH&entity=ATM&entity=MCD&lat=38.833797454833984&lng=-104.82144927978516&distance=1000&callback=myJsonpCallback,Safeway,3275 W Colorado Ave,Colorado Springs,CO,80904,ATMSW001285,<MISSING>,38.854886,-104.876987,12:00am - 12:00am Sun-Sat,USA,ATM
key.com,https://www.key.com/loc/DirectorServlet?action=getEntities&entity=BRCH&entity=ATM&entity=MCD&lat=38.833797454833984&lng=-104.82144927978516&distance=1000&callback=myJsonpCallback,Lisa Nails,215 N Academy Blvd,Colorado Spring,CO,80909,ATMP370581,<MISSING>,38.836255,-104.756703,12:00am - 12:00am Sun-Sat,USA,ATM
key.com,https://www.key.com/loc/DirectorServlet?action=getEntities&entity=BRCH&entity=ATM&entity=MCD&lat=38.833797454833984&lng=-104.82144927978516&distance=1000&callback=myJsonpCallback,Loaf N Jug,710 Cheyenne Meadows Rd,Colorado Springs,CO,80906,ATMKR002543,<MISSING>,38.777401,-104.814471,12:00am - 12:00am Sun-Sat,USA,ATM
key.com,https://www.key.com/loc/DirectorServlet?action=getEntities&entity=BRCH&entity=ATM&entity=MCD&lat=38.833797454833984&lng=-104.82144927978516&distance=1000&callback=myJsonpCallback,Loaf N Jug 2,1930 S Academy Blvd,Colorado Springs,CO,80916,ATMKR002309,<MISSING>,38.804178,-104.758821,12:00am - 12:00am Sun-Sat,USA,ATM
key.com,https://www.key.com/loc/DirectorServlet?action=getEntities&entity=BRCH&entity=ATM&entity=MCD&lat=38.833797454833984&lng=-104.82144927978516&distance=1000&callback=myJsonpCallback,Loaf N Jug 1,1930 S Academy Blvd,Colorado Springs,CO,80916,ATMKR002548,<MISSING>,38.804178,-104.758821,12:00am - 12:00am Sun-Sat,USA,ATM
key.com,https://www.key.com/loc/DirectorServlet?action=getEntities&entity=BRCH&entity=ATM&entity=MCD&lat=38.833797454833984&lng=-104.82144927978516&distance=1000&callback=myJsonpCallback,Walgreens,4305 E Platte Ave,Colorado Springs,CO,80915,ATMWG006731,<MISSING>,38.838975,-104.747327,12:00am - 12:00am Sun-Sat,USA,ATM
key.com,https://www.key.com/loc/DirectorServlet?action=getEntities&entity=BRCH&entity=ATM&entity=MCD&lat=38.833797454833984&lng=-104.82144927978516&distance=1000&callback=myJsonpCallback,Loaf N Jug,4335 Airport Rd,Colorado Springs,CO,80916,ATMKR002541,<MISSING>,38.824851,-104.747654,12:00am - 12:00am Sun-Sat,USA,ATM
key.com,https://www.key.com/loc/DirectorServlet?action=getEntities&entity=BRCH&entity=ATM&entity=MCD&lat=38.833797454833984&lng=-104.82144927978516&distance=1000&callback=myJsonpCallback,Loaf N Jug,4335 Airport Rd,Colorado Springs,CO,80916,ATMKR002545,<MISSING>,38.824851,-104.747654,12:00am - 12:00am Sun-Sat,USA,ATM
key.com,https://www.key.com/loc/DirectorServlet?action=getEntities&entity=BRCH&entity=ATM&entity=MCD&lat=38.833797454833984&lng=-104.82144927978516&distance=1000&callback=myJsonpCallback,Walgreens,1920 S Chelton Rd,Colorado Springs,CO,80916,ATMWG004596,<MISSING>,38.804390,-104.756845,12:00am - 12:00am Sun-Sat,USA,ATM
key.com,https://www.key.com/loc/DirectorServlet?action=getEntities&entity=BRCH&entity=ATM&entity=MCD&lat=38.833797454833984&lng=-104.82144927978516&distance=1000&callback=myJsonpCallback,Loaf N Jug,137 Manitou Ave,Manitou Springs,CO,80829,ATMKR001755,<MISSING>,38.858163,-104.894727,12:00am - 12:00am Sun-Sat,USA,ATM
key.com,https://www.key.com/loc/DirectorServlet?action=getEntities&entity=BRCH&entity=ATM&entity=MCD&lat=38.833797454833984&lng=-104.82144927978516&distance=1000&callback=myJsonpCallback,Loaf N Jug,137 Manitou Ave,Manitou Springs,CO,80829,ATMKR002557,<MISSING>,38.858163,-104.894727,12:00am - 12:00am Sun-Sat,USA,ATM
key.com,https://www.key.com/loc/DirectorServlet?action=getEntities&entity=BRCH&entity=ATM&entity=MCD&lat=38.833797454833984&lng=-104.82144927978516&distance=1000&callback=myJsonpCallback,Safeway,1425 S Murray Blvd,Colorado Springs,CO,80916,ATMSW510008,<MISSING>,38.812519,-104.746338,12:00am - 12:00am Sun-Sat,USA,ATM
key.com,https://www.key.com/loc/DirectorServlet?action=getEntities&entity=BRCH&entity=ATM&entity=MCD&lat=38.833797454833984&lng=-104.82144927978516&distance=1000&callback=myJsonpCallback,Walgreens,4315 Centennial Blvd,Colorado Springs,CO,80907,ATMWG001864,<MISSING>,38.893859,-104.849805,12:00am - 12:00am Sun-Sat,USA,ATM
key.com,https://www.key.com/loc/DirectorServlet?action=getEntities&entity=BRCH&entity=ATM&entity=MCD&lat=38.833797454833984&lng=-104.82144927978516&distance=1000&callback=myJsonpCallback,Safeway,6520 S Academy Blvd,Colorado Springs,CO,80906,ATMSW001166,<MISSING>,38.767417,-104.815001,12:00am - 12:00am Sun-Sat,USA,ATM
key.com,https://www.key.com/loc/DirectorServlet?action=getEntities&entity=BRCH&entity=ATM&entity=MCD&lat=38.833797454833984&lng=-104.82144927978516&distance=1000&callback=myJsonpCallback,Walgreens,3480 N Academy Blvd,Colorado Springs,CO,80917,ATMWG003586,<MISSING>,38.881703,-104.757700,12:00am - 12:00am Sun-Sat,USA,ATM
key.com,https://www.key.com/loc/DirectorServlet?action=getEntities&entity=BRCH&entity=ATM&entity=MCD&lat=38.833797454833984&lng=-104.82144927978516&distance=1000&callback=myJsonpCallback,Academy-Hancock,3085 S Academy Blvd,Colorado Springs,CO,80916,BRCH06180018,719-391-5700,38.787689,-104.754882,9:00am - 5:00pm Mon - Thu 9:00am - 6:00pm Fri 9:00am - 12:00pm Sat,USA,branch
key.com,https://www.key.com/loc/DirectorServlet?action=getEntities&entity=BRCH&entity=ATM&entity=MCD&lat=38.833797454833984&lng=-104.82144927978516&distance=1000&callback=myJsonpCallback,Academy/Hancock,3085 S Academy Blvd,Colorado,CO,80916,ATMKB1929,<MISSING>,38.787701,-104.754831,24 Hour Access,USA,ATM
key.com,https://www.key.com/loc/DirectorServlet?action=getEntities&entity=BRCH&entity=ATM&entity=MCD&lat=38.833797454833984&lng=-104.82144927978516&distance=1000&callback=myJsonpCallback,Cvs,3475 N Academy Blvd,Colorado Springs,CO,80917,ATMVC001001,<MISSING>,38.881757,-104.756348,12:00am - 12:00am Sun-Sat,USA,ATM
key.com,https://www.key.com/loc/DirectorServlet?action=getEntities&entity=BRCH&entity=ATM&entity=MCD&lat=38.833797454833984&lng=-104.82144927978516&distance=1000&callback=myJsonpCallback,Ebony Beauty Plus,3239 S Academy Blvd Ste 100,Colorado Springs,CO,80916,ATMTN84665,<MISSING>,38.785881,-104.755774,12:00am - 12:00am Sun-Sat,USA,ATM
key.com,https://www.key.com/loc/DirectorServlet?action=getEntities&entity=BRCH&entity=ATM&entity=MCD&lat=38.833797454833984&lng=-104.82144927978516&distance=1000&callback=myJsonpCallback,Green Crest Laundry,3612 Jeannine Dr,Colorado Springs,CO,80917,ATMTN71205,<MISSING>,38.886000,-104.760237,12:00am - 12:00am Sun-Sat,USA,ATM
key.com,https://www.key.com/loc/DirectorServlet?action=getEntities&entity=BRCH&entity=ATM&entity=MCD&lat=38.833797454833984&lng=-104.82144927978516&distance=1000&callback=myJsonpCallback,Costco,5050 N Nevada Ave,Colorado Springs,CO,80918,ATMCW001127,<MISSING>,38.905432,-104.822265,12:00am - 12:00am Sun-Sat,USA,ATM
key.com,https://www.key.com/loc/DirectorServlet?action=getEntities&entity=BRCH&entity=ATM&entity=MCD&lat=38.833797454833984&lng=-104.82144927978516&distance=1000&callback=myJsonpCallback,Loaf N Jug,2505 S Chelton Rd,Colorado Springs,CO,80916,ATMKR002544,<MISSING>,38.797213,-104.742386,12:00am - 12:00am Sun-Sat,USA,ATM
key.com,https://www.key.com/loc/DirectorServlet?action=getEntities&entity=BRCH&entity=ATM&entity=MCD&lat=38.833797454833984&lng=-104.82144927978516&distance=1000&callback=myJsonpCallback,Loaf N Jug,3705 Drennan Rd,Colorado Springs,CO,80910,ATMKR002549,<MISSING>,38.780852,-104.758301,12:00am - 12:00am Sun-Sat,USA,ATM
key.com,https://www.key.com/loc/DirectorServlet?action=getEntities&entity=BRCH&entity=ATM&entity=MCD&lat=38.833797454833984&lng=-104.82144927978516&distance=1000&callback=myJsonpCallback,Loaf N Jug 2,5375 Airport Rd,Colorado Springs,CO,80916,ATMKR002342,<MISSING>,38.824170,-104.728500,12:00am - 12:00am Sun-Sat,USA,ATM
key.com,https://www.key.com/loc/DirectorServlet?action=getEntities&entity=BRCH&entity=ATM&entity=MCD&lat=38.833797454833984&lng=-104.82144927978516&distance=1000&callback=myJsonpCallback,Loaf N Jug 1,5375 Airport Rd,Colorado Springs,CO,80916,ATMKR002558,<MISSING>,38.824170,-104.728500,12:00am - 12:00am Sun-Sat,USA,ATM
key.com,https://www.key.com/loc/DirectorServlet?action=getEntities&entity=BRCH&entity=ATM&entity=MCD&lat=38.833797454833984&lng=-104.82144927978516&distance=1000&callback=myJsonpCallback,Loaf N Jug,4098 Arrowswest Dr,Colorado Springs,CO,80907,ATMKR002554,<MISSING>,38.896879,-104.872640,12:00am - 12:00am Sun-Sat,USA,ATM
key.com,https://www.key.com/loc/DirectorServlet?action=getEntities&entity=BRCH&entity=ATM&entity=MCD&lat=38.833797454833984&lng=-104.82144927978516&distance=1000&callback=myJsonpCallback,Target,5240 N Academy Blvd,Colorado Springs,CO,80907,ATMTG005832,<MISSING>,38.904852,-104.780854,12:00am - 12:00am Sun-Sat,USA,ATM
key.com,https://www.key.com/loc/DirectorServlet?action=getEntities&entity=BRCH&entity=ATM&entity=MCD&lat=38.833797454833984&lng=-104.82144927978516&distance=1000&callback=myJsonpCallback,Safeway,5060 N Academy Blvd,Colorado Springs,CO,80918,ATMSW510001,<MISSING>,38.903579,-104.777381,12:00am - 12:00am Sun-Sat,USA,ATM
key.com,https://www.key.com/loc/DirectorServlet?action=getEntities&entity=BRCH&entity=ATM&entity=MCD&lat=38.833797454833984&lng=-104.82144927978516&distance=1000&callback=myJsonpCallback,Loaf N Jug,1019 Space Center Dr,Colorado Springs,CO,80915,ATMKR002552,<MISSING>,38.846814,-104.722483,12:00am - 12:00am Sun-Sat,USA,ATM
key.com,https://www.key.com/loc/DirectorServlet?action=getEntities&entity=BRCH&entity=ATM&entity=MCD&lat=38.833797454833984&lng=-104.82144927978516&distance=1000&callback=myJsonpCallback,Walgreens,4713 Flintridge Dr,Colorado Springs,CO,80918,ATMWG510057,<MISSING>,38.900279,-104.768011,12:00am - 12:00am Sun-Sat,USA,ATM
key.com,https://www.key.com/loc/DirectorServlet?action=getEntities&entity=BRCH&entity=ATM&entity=MCD&lat=38.833797454833984&lng=-104.82144927978516&distance=1000&callback=myJsonpCallback,Loaf N Jug 2,4770 Drennan Rd,Colorado Springs,CO,80916,ATMKR002528,<MISSING>,38.782345,-104.739562,12:00am - 12:00am Sun-Sat,USA,ATM
key.com,https://www.key.com/loc/DirectorServlet?action=getEntities&entity=BRCH&entity=ATM&entity=MCD&lat=38.833797454833984&lng=-104.82144927978516&distance=1000&callback=myJsonpCallback,Loaf N Jug 1,4770 Drennan Rd,Colorado Springs,CO,80916,ATMKR002547,<MISSING>,38.782345,-104.739562,12:00am - 12:00am Sun-Sat,USA,ATM
key.com,https://www.key.com/loc/DirectorServlet?action=getEntities&entity=BRCH&entity=ATM&entity=MCD&lat=38.833797454833984&lng=-104.82144927978516&distance=1000&callback=myJsonpCallback,Academy/North,5725 North Academy Blvd,Colorado Springs,CO,80918,BRCH06180019,719-278-5080,38.914144,-104.787472,9:00am - 5:00pm Mon - Thu 9:00am - 6:00pm Fri 9:00am - 12:00pm Sat,USA,branch
key.com,https://www.key.com/loc/DirectorServlet?action=getEntities&entity=BRCH&entity=ATM&entity=MCD&lat=38.833797454833984&lng=-104.82144927978516&distance=1000&callback=myJsonpCallback,North Academy,5725 N Academy Blvd,Colorado Springs,CO,80918,ATMKB1851,<MISSING>,38.914144,-104.787471,24 Hour Access,USA,ATM
key.com,https://www.key.com/loc/DirectorServlet?action=getEntities&entity=BRCH&entity=ATM&entity=MCD&lat=38.833797454833984&lng=-104.82144927978516&distance=1000&callback=myJsonpCallback,Loaf N Jug 2,5825 N Academy Blvd,Colorado Springs,CO,80918,ATMKR002553,<MISSING>,38.915857,-104.786154,12:00am - 12:00am Sun-Sat,USA,ATM
key.com,https://www.key.com/loc/DirectorServlet?action=getEntities&entity=BRCH&entity=ATM&entity=MCD&lat=38.833797454833984&lng=-104.82144927978516&distance=1000&callback=myJsonpCallback,Walgreens,5755 Constitution Ave,Colorado Springs,CO,80915,ATMWG003914,<MISSING>,38.871395,-104.720810,12:00am - 12:00am Sun-Sat,USA,ATM
key.com,https://www.key.com/loc/DirectorServlet?action=getEntities&entity=BRCH&entity=ATM&entity=MCD&lat=38.833797454833984&lng=-104.82144927978516&distance=1000&callback=myJsonpCallback,Loaf N Jug,6695 Galley Rd,Colorado Springs,CO,80915,ATMKR002550,<MISSING>,38.845825,-104.708911,12:00am - 12:00am Sun-Sat,USA,ATM
key.com,https://www.key.com/loc/DirectorServlet?action=getEntities&entity=BRCH&entity=ATM&entity=MCD&lat=38.833797454833984&lng=-104.82144927978516&distance=1000&callback=myJsonpCallback,Safeway,2895 N Powers Blvd,Colorado Springs,CO,80922,ATMSW001167,<MISSING>,38.874283,-104.719832,12:00am - 12:00am Sun-Sat,USA,ATM
key.com,https://www.key.com/loc/DirectorServlet?action=getEntities&entity=BRCH&entity=ATM&entity=MCD&lat=38.833797454833984&lng=-104.82144927978516&distance=1000&callback=myJsonpCallback,Safeway,840 Village Center Dr,Colorado Springs,CO,80919,ATMSW510040,<MISSING>,38.923778,-104.844353,12:00am - 12:00am Sun-Sat,USA,ATM
key.com,https://www.key.com/loc/DirectorServlet?action=getEntities&entity=BRCH&entity=ATM&entity=MCD&lat=38.833797454833984&lng=-104.82144927978516&distance=1000&callback=myJsonpCallback,Loaf N Jug,6857 Space Village Ave,Colorado Springs,CO,80915,ATMKR002546,<MISSING>,38.838738,-104.699272,12:00am - 12:00am Sun-Sat,USA,ATM
key.com,https://www.key.com/loc/DirectorServlet?action=getEntities&entity=BRCH&entity=ATM&entity=MCD&lat=38.833797454833984&lng=-104.82144927978516&distance=1000&callback=myJsonpCallback,Target,3810 Bloomington St,Colorado Springs,CO,80922,ATMTG005646,<MISSING>,38.888541,-104.718145,12:00am - 12:00am Sun-Sat,USA,ATM
key.com,https://www.key.com/loc/DirectorServlet?action=getEntities&entity=BRCH&entity=ATM&entity=MCD&lat=38.833797454833984&lng=-104.82144927978516&distance=1000&callback=myJsonpCallback,Walgreens,2785 Dublin Blvd,Colorado Springs,CO,80918,ATMWG003583,<MISSING>,38.925430,-104.776165,12:00am - 12:00am Sun-Sat,USA,ATM
key.com,https://www.key.com/loc/DirectorServlet?action=getEntities&entity=BRCH&entity=ATM&entity=MCD&lat=38.833797454833984&lng=-104.82144927978516&distance=1000&callback=myJsonpCallback,Costco,5885 Barnes Rd,Colorado Springs,CO,80922,ATMCW001215,<MISSING>,38.892707,-104.718214,12:00am - 12:00am Sun-Sat,USA,ATM
key.com,https://www.key.com/loc/DirectorServlet?action=getEntities&entity=BRCH&entity=ATM&entity=MCD&lat=38.833797454833984&lng=-104.82144927978516&distance=1000&callback=myJsonpCallback,Walgreens,6820 Centennial Blvd,Colorado Springs,CO,80919,ATMWC000016,<MISSING>,38.928771,-104.864701,12:00am - 12:00am Sun-Sat,USA,ATM
key.com,https://www.key.com/loc/DirectorServlet?action=getEntities&entity=BRCH&entity=ATM&entity=MCD&lat=38.833797454833984&lng=-104.82144927978516&distance=1000&callback=myJsonpCallback,Walgreens,280 Main St,Colorado Springs,CO,80911,ATMWG004709,<MISSING>,38.752532,-104.743028,12:00am - 12:00am Sun-Sat,USA,ATM
key.com,https://www.key.com/loc/DirectorServlet?action=getEntities&entity=BRCH&entity=ATM&entity=MCD&lat=38.833797454833984&lng=-104.82144927978516&distance=1000&callback=myJsonpCallback,Walgreens,6075 Barnes Rd,Colorado Springs,CO,80922,ATMWG007142,<MISSING>,38.893668,-104.714919,12:00am - 12:00am Sun-Sat,USA,ATM
key.com,https://www.key.com/loc/DirectorServlet?action=getEntities&entity=BRCH&entity=ATM&entity=MCD&lat=38.833797454833984&lng=-104.82144927978516&distance=1000&callback=myJsonpCallback,Walgreens,6011 Rangewood Dr,Colorado Springs,CO,80918,ATMWG005621,<MISSING>,38.920959,-104.739246,12:00am - 12:00am Sun-Sat,USA,ATM
key.com,https://www.key.com/loc/DirectorServlet?action=getEntities&entity=BRCH&entity=ATM&entity=MCD&lat=38.833797454833984&lng=-104.82144927978516&distance=1000&callback=myJsonpCallback,Walgreens,7390 Rangewood Dr,Colorado Springs,CO,80918,ATMWG009768,<MISSING>,38.937456,-104.757495,12:00am - 12:00am Sun-Sat,USA,ATM
key.com,https://www.key.com/loc/DirectorServlet?action=getEntities&entity=BRCH&entity=ATM&entity=MCD&lat=38.833797454833984&lng=-104.82144927978516&distance=1000&callback=myJsonpCallback,Cvs,7353 Rangewood Dr,Colorado Springs,CO,80918,ATMVC511024,<MISSING>,38.937179,-104.755869,12:00am - 12:00am Sun-Sat,USA,ATM
key.com,https://www.key.com/loc/DirectorServlet?action=getEntities&entity=BRCH&entity=ATM&entity=MCD&lat=38.833797454833984&lng=-104.82144927978516&distance=1000&callback=myJsonpCallback,Woodmen,3605 Hartsel Dr,Colorado Springs,CO,80920,ATMKB1932,<MISSING>,38.938845,-104.758619,24 Hour Access,USA,ATM
key.com,https://www.key.com/loc/DirectorServlet?action=getEntities&entity=BRCH&entity=ATM&entity=MCD&lat=38.833797454833984&lng=-104.82144927978516&distance=1000&callback=myJsonpCallback,Woodmen,3605 Hartsel Dr,Colorado Springs,CO,80920,BRCH06180621,719-272-8400,38.938845,-104.758597,9:00am - 5:00pm Mon - Thu 9:00am - 6:00pm Fri,USA,branch
key.com,https://www.key.com/loc/DirectorServlet?action=getEntities&entity=BRCH&entity=ATM&entity=MCD&lat=38.833797454833984&lng=-104.82144927978516&distance=1000&callback=myJsonpCallback,Loaf N Jug,7055 Alegre Cir,Fountain,CO,80817,ATMKR002556,<MISSING>,38.729446,-104.724907,12:00am - 12:00am Sun-Sat,USA,ATM
key.com,https://www.key.com/loc/DirectorServlet?action=getEntities&entity=BRCH&entity=ATM&entity=MCD&lat=38.833797454833984&lng=-104.82144927978516&distance=1000&callback=myJsonpCallback,Walgreens,8705 Lexington Dr,Colorado Springs,CO,80920,ATMWG005262,<MISSING>,38.957511,-104.768672,12:00am - 12:00am Sun-Sat,USA,ATM
key.com,https://www.key.com/loc/DirectorServlet?action=getEntities&entity=BRCH&entity=ATM&entity=MCD&lat=38.833797454833984&lng=-104.82144927978516&distance=1000&callback=myJsonpCallback,Walgreens,4470 Royal Pine Dr,Colorado Springs,CO,80920,ATMWG511477,<MISSING>,38.967504,-104.745696,12:00am - 12:00am Sun-Sat,USA,ATM
key.com,https://www.key.com/loc/DirectorServlet?action=getEntities&entity=BRCH&entity=ATM&entity=MCD&lat=38.833797454833984&lng=-104.82144927978516&distance=1000&callback=myJsonpCallback,Walgreens,7910 Fountain Mesa Rd,Fountain,CO,80817,ATMWG007022,<MISSING>,38.717759,-104.702380,12:00am - 12:00am Sun-Sat,USA,ATM
key.com,https://www.key.com/loc/DirectorServlet?action=getEntities&entity=BRCH&entity=ATM&entity=MCD&lat=38.833797454833984&lng=-104.82144927978516&distance=1000&callback=myJsonpCallback,Target,9670 Prominent Pt,Colorado Springs,CO,80920,ATMTG006090,<MISSING>,38.973464,-104.746498,12:00am - 12:00am Sun-Sat,USA,ATM
key.com,https://www.key.com/loc/DirectorServlet?action=getEntities&entity=BRCH&entity=ATM&entity=MCD&lat=38.833797454833984&lng=-104.82144927978516&distance=1000&callback=myJsonpCallback,Safeway,6925 Mesa Ridge Pkwy,Fountain,CO,80817,ATMSW001080,<MISSING>,38.716314,-104.698943,12:00am - 12:00am Sun-Sat,USA,ATM
key.com,https://www.key.com/loc/DirectorServlet?action=getEntities&entity=BRCH&entity=ATM&entity=MCD&lat=38.833797454833984&lng=-104.82144927978516&distance=1000&callback=myJsonpCallback,Safeway,6925 Mesa Ridge Pkwy,Fountain,CO,80817,ATMSW001342,<MISSING>,38.716314,-104.698943,12:00am - 12:00am Sun-Sat,USA,ATM
key.com,https://www.key.com/loc/DirectorServlet?action=getEntities&entity=BRCH&entity=ATM&entity=MCD&lat=38.833797454833984&lng=-104.82144927978516&distance=1000&callback=myJsonpCallback,Brunswick Zone Xl Interquest,1180 Interquest Pkwy,Colorado Springs,CO,80921,ATMP273971,<MISSING>,38.994056,-104.808814,12:00am - 12:00am Sun-Sat,USA,ATM
key.com,https://www.key.com/loc/DirectorServlet?action=getEntities&entity=BRCH&entity=ATM&entity=MCD&lat=38.833797454833984&lng=-104.82144927978516&distance=1000&callback=myJsonpCallback,Loaf N Jug 2,102 S Santa Fe Ave,Fountain,CO,80817,ATMKR002344,<MISSING>,38.682838,-104.703895,12:00am - 12:00am Sun-Sat,USA,ATM
key.com,https://www.key.com/loc/DirectorServlet?action=getEntities&entity=BRCH&entity=ATM&entity=MCD&lat=38.833797454833984&lng=-104.82144927978516&distance=1000&callback=myJsonpCallback,Loaf N Jug 1,102 S Santa Fe Ave,Fountain,CO,80817,ATMKR002555,<MISSING>,38.682838,-104.703895,12:00am - 12:00am Sun-Sat,USA,ATM
key.com,https://www.key.com/loc/DirectorServlet?action=getEntities&entity=BRCH&entity=ATM&entity=MCD&lat=38.833797454833984&lng=-104.82144927978516&distance=1000&callback=myJsonpCallback,City of Fountain,116 S Main St,Fountain,CO,80817,ATMP219569,<MISSING>,38.682680,-104.700229,12:00am - 12:00am Sun-Sat,USA,ATM
key.com,https://www.key.com/loc/DirectorServlet?action=getEntities&entity=BRCH&entity=ATM&entity=MCD&lat=38.833797454833984&lng=-104.82144927978516&distance=1000&callback=myJsonpCallback,Super 8 Fountain,6120 Champlin Dr,Fountain,CO,80817,ATMP344366,<MISSING>,38.675188,-104.713228,12:00am - 12:00am Sun-Sat,USA,ATM
key.com,https://www.key.com/loc/DirectorServlet?action=getEntities&entity=BRCH&entity=ATM&entity=MCD&lat=38.833797454833984&lng=-104.82144927978516&distance=1000&callback=myJsonpCallback,Loaf N Jug,710 Copper Center Pkwy,Colorado Springs,CO,80921,ATMKR002539,<MISSING>,39.021314,-104.813453,12:00am - 12:00am Sun-Sat,USA,ATM
key.com,https://www.key.com/loc/DirectorServlet?action=getEntities&entity=BRCH&entity=ATM&entity=MCD&lat=38.833797454833984&lng=-104.82144927978516&distance=1000&callback=myJsonpCallback,Loaf N Jug,161 Northgate Blvd,Colorado Springs,CO,80921,ATMKR001878,<MISSING>,39.028599,-104.813825,12:00am - 12:00am Sun-Sat,USA,ATM
key.com,https://www.key.com/loc/DirectorServlet?action=getEntities&entity=BRCH&entity=ATM&entity=MCD&lat=38.833797454833984&lng=-104.82144927978516&distance=1000&callback=myJsonpCallback,Walgreens,7392 Mclaughlin Rd,Peyton,CO,80831,ATMWG009199,<MISSING>,38.939950,-104.605306,12:00am - 12:00am Sun-Sat,USA,ATM
key.com,https://www.key.com/loc/DirectorServlet?action=getEntities&entity=BRCH&entity=ATM&entity=MCD&lat=38.833797454833984&lng=-104.82144927978516&distance=1000&callback=myJsonpCallback,Safeway,7505 Mclaughlin Rd,Peyton,CO,80831,ATMSW001403,<MISSING>,38.940888,-104.603324,12:00am - 12:00am Sun-Sat,USA,ATM
key.com,https://www.key.com/loc/DirectorServlet?action=getEntities&entity=BRCH&entity=ATM&entity=MCD&lat=38.833797454833984&lng=-104.82144927978516&distance=1000&callback=myJsonpCallback,Safeway,7655 Mclaughlin Rd,Falcon,CO,80831,ATMSW510064,<MISSING>,38.941571,-104.601560,12:00am - 12:00am Sun-Sat,USA,ATM
key.com,https://www.key.com/loc/DirectorServlet?action=getEntities&entity=BRCH&entity=ATM&entity=MCD&lat=38.833797454833984&lng=-104.82144927978516&distance=1000&callback=myJsonpCallback,Walgreens,725 W Baptist Rd,Monument,CO,80132,ATMWG000456,<MISSING>,39.056504,-104.841075,12:00am - 12:00am Sun-Sat,USA,ATM
key.com,https://www.key.com/loc/DirectorServlet?action=getEntities&entity=BRCH&entity=ATM&entity=MCD&lat=38.833797454833984&lng=-104.82144927978516&distance=1000&callback=myJsonpCallback,Walgreens,140 Paradise Cir,Woodland Park,CO,80863,ATMWG009561,<MISSING>,38.982381,-105.044278,12:00am - 12:00am Sun-Sat,USA,ATM
key.com,https://www.key.com/loc/DirectorServlet?action=getEntities&entity=BRCH&entity=ATM&entity=MCD&lat=38.833797454833984&lng=-104.82144927978516&distance=1000&callback=myJsonpCallback,Safeway,1101 E US Hwy 24,Woodland Park,CO,80863,ATMSW001081,<MISSING>,38.982727,-105.046911,12:00am - 12:00am Sun-Sat,USA,ATM
key.com,https://www.key.com/loc/DirectorServlet?action=getEntities&entity=BRCH&entity=ATM&entity=MCD&lat=38.833797454833984&lng=-104.82144927978516&distance=1000&callback=myJsonpCallback,Murphy Express,16780 Leatherchaps Dr,Monument,CO,80132,ATMMU000166,<MISSING>,39.065617,-104.848540,12:00am - 12:00am Sun-Sat,USA,ATM
key.com,https://www.key.com/loc/DirectorServlet?action=getEntities&entity=BRCH&entity=ATM&entity=MCD&lat=38.833797454833984&lng=-104.82144927978516&distance=1000&callback=myJsonpCallback,Loaf N Jug,260 E Hwy 24,Woodland Park,CO,80863,ATMKR002307,<MISSING>,38.992943,-105.049148,12:00am - 12:00am Sun-Sat,USA,ATM
key.com,https://www.key.com/loc/DirectorServlet?action=getEntities&entity=BRCH&entity=ATM&entity=MCD&lat=38.833797454833984&lng=-104.82144927978516&distance=1000&callback=myJsonpCallback,City Market,777 Gold Hill Place S,Woodland Park,CO,80863,ATMKR002081,<MISSING>,38.991301,-105.059152,12:00am - 12:00am Sun-Sat,USA,ATM
key.com,https://www.key.com/loc/DirectorServlet?action=getEntities&entity=BRCH&entity=ATM&entity=MCD&lat=38.833797454833984&lng=-104.82144927978516&distance=1000&callback=myJsonpCallback,Loaf N Jug,519 W Hwy 24,Woodland Park,CO,80866,ATMKR002489,<MISSING>,38.993259,-105.058308,12:00am - 12:00am Sun-Sat,USA,ATM
key.com,https://www.key.com/loc/DirectorServlet?action=getEntities&entity=BRCH&entity=ATM&entity=MCD&lat=38.833797454833984&lng=-104.82144927978516&distance=1000&callback=myJsonpCallback,Walgreens,265 W Hwy 105,Monument,CO,80132,ATMWG512769,<MISSING>,39.093029,-104.864710,12:00am - 12:00am Sun-Sat,USA,ATM
key.com,https://www.key.com/loc/DirectorServlet?action=getEntities&entity=BRCH&entity=ATM&entity=MCD&lat=38.833797454833984&lng=-104.82144927978516&distance=1000&callback=myJsonpCallback,Safeway,624 Hwy 105,Monument,CO,80132,ATMSW001113,<MISSING>,39.098948,-104.865466,12:00am - 12:00am Sun-Sat,USA,ATM
key.com,https://www.key.com/loc/DirectorServlet?action=getEntities&entity=BRCH&entity=ATM&entity=MCD&lat=38.833797454833984&lng=-104.82144927978516&distance=1000&callback=myJsonpCallback,Florissant 66,2839 W Hwy 24,Florissant,CO,80816,ATMP307356,<MISSING>,38.947062,-105.286567,12:00am - 12:00am Sun-Sat,USA,ATM
key.com,https://www.key.com/loc/DirectorServlet?action=getEntities&entity=BRCH&entity=ATM&entity=MCD&lat=38.833797454833984&lng=-104.82144927978516&distance=1000&callback=myJsonpCallback,Alta Convenience,916 Hwy 115,Penrose,CO,81240,ATMP372693,<MISSING>,38.422468,-105.032593,12:00am - 12:00am Sun-Sat,USA,ATM
key.com,https://www.key.com/loc/DirectorServlet?action=getEntities&entity=BRCH&entity=ATM&entity=MCD&lat=38.833797454833984&lng=-104.82144927978516&distance=1000&callback=myJsonpCallback,Loaf N Jug,1025 5th St,Calhan,CO,80808,ATMKR002540,<MISSING>,39.036228,-104.304287,12:00am - 12:00am Sun-Sat,USA,ATM
key.com,https://www.key.com/loc/DirectorServlet?action=getEntities&entity=BRCH&entity=ATM&entity=MCD&lat=38.833797454833984&lng=-104.82144927978516&distance=1000&callback=myJsonpCallback,Alta Convenience,3095 E Hwy 50,Canon City,CO,81212,ATMP372710,<MISSING>,38.447479,-105.194230,12:00am - 12:00am Sun-Sat,USA,ATM
key.com,https://www.key.com/loc/DirectorServlet?action=getEntities&entity=BRCH&entity=ATM&entity=MCD&lat=38.833797454833984&lng=-104.82144927978516&distance=1000&callback=myJsonpCallback,Alta Convenience,1501 Central Ave,Canon City,CO,81212,ATMP372727,<MISSING>,38.459717,-105.226967,12:00am - 12:00am Sun-Sat,USA,ATM
key.com,https://www.key.com/loc/DirectorServlet?action=getEntities&entity=BRCH&entity=ATM&entity=MCD&lat=38.833797454833984&lng=-104.82144927978516&distance=1000&callback=myJsonpCallback,Alta Convenience,2075 Fremont Dr,Canon City,CO,81212,ATMP372708,<MISSING>,38.448484,-105.217761,12:00am - 12:00am Sun-Sat,USA,ATM
key.com,https://www.key.com/loc/DirectorServlet?action=getEntities&entity=BRCH&entity=ATM&entity=MCD&lat=38.833797454833984&lng=-104.82144927978516&distance=1000&callback=myJsonpCallback,Alta Convenience,921 E Main,Florence,CO,81226,ATMP372702,<MISSING>,38.387785,-105.102379,12:00am - 12:00am Sun-Sat,USA,ATM
key.com,https://www.key.com/loc/DirectorServlet?action=getEntities&entity=BRCH&entity=ATM&entity=MCD&lat=38.833797454833984&lng=-104.82144927978516&distance=1000&callback=myJsonpCallback,City Market,1703 Fremont,Canon City,CO,81212,ATMKR002064,<MISSING>,38.448752,-105.224363,12:00am - 12:00am Sun-Sat,USA,ATM
key.com,https://www.key.com/loc/DirectorServlet?action=getEntities&entity=BRCH&entity=ATM&entity=MCD&lat=38.833797454833984&lng=-104.82144927978516&distance=1000&callback=myJsonpCallback,Walgreens,1609 Fremont Dr,Canon City,CO,81212,ATMWG009393,<MISSING>,38.447533,-105.225348,12:00am - 12:00am Sun-Sat,USA,ATM
key.com,https://www.key.com/loc/DirectorServlet?action=getEntities&entity=BRCH&entity=ATM&entity=MCD&lat=38.833797454833984&lng=-104.82144927978516&distance=1000&callback=myJsonpCallback,Loaf N Jug,506 E Main St,Florence,CO,81226,ATMKR002321,<MISSING>,38.388320,-105.111155,12:00am - 12:00am Sun-Sat,USA,ATM
key.com,https://www.key.com/loc/DirectorServlet?action=getEntities&entity=BRCH&entity=ATM&entity=MCD&lat=38.833797454833984&lng=-104.82144927978516&distance=1000&callback=myJsonpCallback,Alta Convenience,217 Church Ave,Florence,CO,81226,ATMP372723,<MISSING>,38.392138,-105.122580,12:00am - 12:00am Sun-Sat,USA,ATM
key.com,https://www.key.com/loc/DirectorServlet?action=getEntities&entity=BRCH&entity=ATM&entity=MCD&lat=38.833797454833984&lng=-104.82144927978516&distance=1000&callback=myJsonpCallback,Loaf N Jug 1,14 W Spaulding Ave,Pueblo West,CO,81007,ATMKR002286,<MISSING>,38.331958,-104.744878,12:00am - 12:00am Sun-Sat,USA,ATM
key.com,https://www.key.com/loc/DirectorServlet?action=getEntities&entity=BRCH&entity=ATM&entity=MCD&lat=38.833797454833984&lng=-104.82144927978516&distance=1000&callback=myJsonpCallback,Loaf N Jug 2,14 W Spaulding Ave,Pueblo West,CO,81007,ATMKR002323,<MISSING>,38.331958,-104.744878,12:00am - 12:00am Sun-Sat,USA,ATM
key.com,https://www.key.com/loc/DirectorServlet?action=getEntities&entity=BRCH&entity=ATM&entity=MCD&lat=38.833797454833984&lng=-104.82144927978516&distance=1000&callback=myJsonpCallback,Loaf N Jug,912 Royal Gorge Blvd,Canon City,CO,81212,ATMKR002311,<MISSING>,38.442282,-105.234229,12:00am - 12:00am Sun-Sat,USA,ATM
key.com,https://www.key.com/loc/DirectorServlet?action=getEntities&entity=BRCH&entity=ATM&entity=MCD&lat=38.833797454833984&lng=-104.82144927978516&distance=1000&callback=myJsonpCallback,Alta Convenience,420 Royal Gorge Blvd,Canon City,CO,81212,ATMP372696,<MISSING>,38.439021,-105.240085,12:00am - 12:00am Sun-Sat,USA,ATM
key.com,https://www.key.com/loc/DirectorServlet?action=getEntities&entity=BRCH&entity=ATM&entity=MCD&lat=38.833797454833984&lng=-104.82144927978516&distance=1000&callback=myJsonpCallback,Alta Convenience,1410 Elm Ave,Canon City,CO,81212,ATMP372716,<MISSING>,38.424446,-105.217373,12:00am - 12:00am Sun-Sat,USA,ATM
key.com,https://www.key.com/loc/DirectorServlet?action=getEntities&entity=BRCH&entity=ATM&entity=MCD&lat=38.833797454833984&lng=-104.82144927978516&distance=1000&callback=myJsonpCallback,Walgreens,958 Hailey Ln,Pueblo,CO,81007,ATMWG009569,<MISSING>,38.325812,-104.701809,12:00am - 12:00am Sun-Sat,USA,ATM
key.com,https://www.key.com/loc/DirectorServlet?action=getEntities&entity=BRCH&entity=ATM&entity=MCD&lat=38.833797454833984&lng=-104.82144927978516&distance=1000&callback=myJsonpCallback,Loaf N Jug,136 S Purcell Blvd,Pueblo,CO,81007,ATMKR002324,<MISSING>,38.321513,-104.702086,12:00am - 12:00am Sun-Sat,USA,ATM
key.com,https://www.key.com/loc/DirectorServlet?action=getEntities&entity=BRCH&entity=ATM&entity=MCD&lat=38.833797454833984&lng=-104.82144927978516&distance=1000&callback=myJsonpCallback,Safeway,880 S Perry St,Castle Rock,CO,80104,ATMSW001106,<MISSING>,39.361930,-104.860961,12:00am - 12:00am Sun-Sat,USA,ATM
key.com,https://www.key.com/loc/DirectorServlet?action=getEntities&entity=BRCH&entity=ATM&entity=MCD&lat=38.833797454833984&lng=-104.82144927978516&distance=1000&callback=myJsonpCallback,Plum Creek & Perry*,748 S Perry St,Castle Rock,CO,80104,ATMKB0760,<MISSING>,39.362709,-104.860550,24 Hour Access,USA,ATM
key.com,https://www.key.com/loc/DirectorServlet?action=getEntities&entity=BRCH&entity=ATM&entity=MCD&lat=38.833797454833984&lng=-104.82144927978516&distance=1000&callback=myJsonpCallback,Walgreens,355 S Wilcox St,Castle Rock,CO,80104,ATMWL006987,<MISSING>,39.366519,-104.862892,12:00am - 12:00am Sun-Sat,USA,ATM
key.com,https://www.key.com/loc/DirectorServlet?action=getEntities&entity=BRCH&entity=ATM&entity=MCD&lat=38.833797454833984&lng=-104.82144927978516&distance=1000&callback=myJsonpCallback,Loaf N Jug,420 Eagleridge Blvd,Pueblo,CO,81008,ATMKR002340,<MISSING>,38.319844,-104.612810,12:00am - 12:00am Sun-Sat,USA,ATM
key.com,https://www.key.com/loc/DirectorServlet?action=getEntities&entity=BRCH&entity=ATM&entity=MCD&lat=38.833797454833984&lng=-104.82144927978516&distance=1000&callback=myJsonpCallback,Royal Gorge Bridge,4218 County Rd 3a,Canon City,CO,81212,ATMCR019248,<MISSING>,38.463079,-105.322885,12:00am - 12:00am Sun-Sat,USA,ATM
key.com,https://www.key.com/loc/DirectorServlet?action=getEntities&entity=BRCH&entity=ATM&entity=MCD&lat=38.833797454833984&lng=-104.82144927978516&distance=1000&callback=myJsonpCallback,Walgreens,1811 W US Highway 50,Pueblo,CO,81008,ATMWG005642,<MISSING>,38.310267,-104.631000,12:00am - 12:00am Sun-Sat,USA,ATM
key.com,https://www.key.com/loc/DirectorServlet?action=getEntities&entity=BRCH&entity=ATM&entity=MCD&lat=38.833797454833984&lng=-104.82144927978516&distance=1000&callback=myJsonpCallback,Loaf N Jug,905 W Hwy 50,Pueblo,CO,81008,ATMKR002327,<MISSING>,38.308837,-104.619992,12:00am - 12:00am Sun-Sat,USA,ATM
key.com,https://www.key.com/loc/DirectorServlet?action=getEntities&entity=BRCH&entity=ATM&entity=MCD&lat=38.833797454833984&lng=-104.82144927978516&distance=1000&callback=myJsonpCallback,Loaf N Jug,4001 Jerry Murphy Rd,Pueblo,CO,81001,ATMKR002318,<MISSING>,38.310415,-104.599555,12:00am - 12:00am Sun-Sat,USA,ATM
key.com,https://www.key.com/loc/DirectorServlet?action=getEntities&entity=BRCH&entity=ATM&entity=MCD&lat=38.833797454833984&lng=-104.82144927978516&distance=1000&callback=myJsonpCallback,Loaf N Jug,33 Montebello Rd,Pueblo,CO,81001,ATMKR002519,<MISSING>,38.306103,-104.599301,12:00am - 12:00am Sun-Sat,USA,ATM
key.com,https://www.key.com/loc/DirectorServlet?action=getEntities&entity=BRCH&entity=ATM&entity=MCD&lat=38.833797454833984&lng=-104.82144927978516&distance=1000&callback=myJsonpCallback,Target,3300 Dillon Dr,Pueblo,CO,81008,ATMTG005836,<MISSING>,38.302358,-104.605812,12:00am - 12:00am Sun-Sat,USA,ATM
key.com,https://www.key.com/loc/DirectorServlet?action=getEntities&entity=BRCH&entity=ATM&entity=MCD&lat=38.833797454833984&lng=-104.82144927978516&distance=1000&callback=myJsonpCallback,Loaf N Jug,2202 W 18th St,Pueblo,CO,81003,ATMKR002319,<MISSING>,38.283193,-104.644754,12:00am - 12:00am Sun-Sat,USA,ATM
key.com,https://www.key.com/loc/DirectorServlet?action=getEntities&entity=BRCH&entity=ATM&entity=MCD&lat=38.833797454833984&lng=-104.82144927978516&distance=1000&callback=myJsonpCallback,Loaf N Jug,2810 Troy Ave,Pueblo,CO,81001,ATMKR002523,<MISSING>,38.297494,-104.572491,12:00am - 12:00am Sun-Sat,USA,ATM
key.com,https://www.key.com/loc/DirectorServlet?action=getEntities&entity=BRCH&entity=ATM&entity=MCD&lat=38.833797454833984&lng=-104.82144927978516&distance=1000&callback=myJsonpCallback,Cvs,4050 Future St,Castle Rock,CO,80109,ATMVC001104,<MISSING>,39.403337,-104.886610,12:00am - 12:00am Sun-Sat,USA,ATM
key.com,https://www.key.com/loc/DirectorServlet?action=getEntities&entity=BRCH&entity=ATM&entity=MCD&lat=38.833797454833984&lng=-104.82144927978516&distance=1000&callback=myJsonpCallback,Loaf N Jug,1201 W 17th St,Pueblo,CO,81003,ATMKR002522,<MISSING>,38.282988,-104.624066,12:00am - 12:00am Sun-Sat,USA,ATM
key.com,https://www.key.com/loc/DirectorServlet?action=getEntities&entity=BRCH&entity=ATM&entity=MCD&lat=38.833797454833984&lng=-104.82144927978516&distance=1000&callback=myJsonpCallback,Walgreens,1013 Bonforte Blvd,Pueblo,CO,81001,ATMWG006283,<MISSING>,38.288964,-104.597049,12:00am - 12:00am Sun-Sat,USA,ATM
key.com,https://www.key.com/loc/DirectorServlet?action=getEntities&entity=BRCH&entity=ATM&entity=MCD&lat=38.833797454833984&lng=-104.82144927978516&distance=1000&callback=myJsonpCallback,Save A Lot,1110 Bonforte Blvd,Pueblo,CO,81001,ATMRT37075,<MISSING>,38.288354,-104.594550,12:00am - 12:00am Sun-Sat,USA,ATM
key.com,https://www.key.com/loc/DirectorServlet?action=getEntities&entity=BRCH&entity=ATM&entity=MCD&lat=38.833797454833984&lng=-104.82144927978516&distance=1000&callback=myJsonpCallback,Castle Rock,4535 Milestone Ln,Castle Rock,CO,80104,ATMKB0729,<MISSING>,39.407043,-104.863457,24 Hour Access,USA,ATM
key.com,https://www.key.com/loc/DirectorServlet?action=getEntities&entity=BRCH&entity=ATM&entity=MCD&lat=38.833797454833984&lng=-104.82144927978516&distance=1000&callback=myJsonpCallback,Castle Rock,4535 Milestone Ln,Castle Rock,CO,80104,BRCH06180554,303-663-5340,39.407043,-104.863457,9:00am - 5:00pm Mon - Thu 9:00am - 6:00pm Fri 9:00am - 12:00pm Sat,USA,branch
key.com,https://www.key.com/loc/DirectorServlet?action=getEntities&entity=BRCH&entity=ATM&entity=MCD&lat=38.833797454833984&lng=-104.82144927978516&distance=1000&callback=myJsonpCallback,Loaf N Jug,1002 Bonforte Blvd,Pueblo,CO,81001,ATMKR002520,<MISSING>,38.287233,-104.596370,12:00am - 12:00am Sun-Sat,USA,ATM
key.com,https://www.key.com/loc/DirectorServlet?action=getEntities&entity=BRCH&entity=ATM&entity=MCD&lat=38.833797454833984&lng=-104.82144927978516&distance=1000&callback=myJsonpCallback,Target,851 Founders Pkwy,Castle Rock,CO,80104,ATMA737,<MISSING>,39.408155,-104.855298,12:00am - 12:00am Sun-Sat,USA,ATM
key.com,https://www.key.com/loc/DirectorServlet?action=getEntities&entity=BRCH&entity=ATM&entity=MCD&lat=38.833797454833984&lng=-104.82144927978516&distance=1000&callback=myJsonpCallback,Loaf N Jug,4901 Castleton Dr,Castle Rock,CO,80104,ATMKR002302,<MISSING>,39.409941,-104.872367,12:00am - 12:00am Sun-Sat,USA,ATM
key.com,https://www.key.com/loc/DirectorServlet?action=getEntities&entity=BRCH&entity=ATM&entity=MCD&lat=38.833797454833984&lng=-104.82144927978516&distance=1000&callback=myJsonpCallback,Walgreens,14 E Allen St,Castle Rock,CO,80108,ATMWL006514,<MISSING>,39.413597,-104.864088,12:00am - 12:00am Sun-Sat,USA,ATM
key.com,https://www.key.com/loc/DirectorServlet?action=getEntities&entity=BRCH&entity=ATM&entity=MCD&lat=38.833797454833984&lng=-104.82144927978516&distance=1000&callback=myJsonpCallback,Loaf N Jug,2120 Oakshire Ln,Pueblo,CO,81001,ATMKR002515,<MISSING>,38.284763,-104.572635,12:00am - 12:00am Sun-Sat,USA,ATM
key.com,https://www.key.com/loc/DirectorServlet?action=getEntities&entity=BRCH&entity=ATM&entity=MCD&lat=38.833797454833984&lng=-104.82144927978516&distance=1000&callback=myJsonpCallback,Coyote Market,313 Comanche St,Kiowa,CO,80117,ATMTX62148,<MISSING>,39.346813,-104.465873,12:00am - 12:00am Sun-Sat,USA,ATM
key.com,https://www.key.com/loc/DirectorServlet?action=getEntities&entity=BRCH&entity=ATM&entity=MCD&lat=38.833797454833984&lng=-104.82144927978516&distance=1000&callback=myJsonpCallback,Loaf N Jug,1525 W 4th St,Pueblo,CO,81004,ATMKR002316,<MISSING>,38.266216,-104.628521,12:00am - 12:00am Sun-Sat,USA,ATM
key.com,https://www.key.com/loc/DirectorServlet?action=getEntities&entity=BRCH&entity=ATM&entity=MCD&lat=38.833797454833984&lng=-104.82144927978516&distance=1000&callback=myJsonpCallback,Loaf N Jug,4800 Thatcher Ave,Pueblo,CO,81005,ATMKR002306,<MISSING>,38.258019,-104.671580,12:00am - 12:00am Sun-Sat,USA,ATM
key.com,https://www.key.com/loc/DirectorServlet?action=getEntities&entity=BRCH&entity=ATM&entity=MCD&lat=38.833797454833984&lng=-104.82144927978516&distance=1000&callback=myJsonpCallback,Walgreens,1520 W 4th St,Pueblo,CO,81004,ATMWG009568,<MISSING>,38.265551,-104.627740,12:00am - 12:00am Sun-Sat,USA,ATM
key.com,https://www.key.com/loc/DirectorServlet?action=getEntities&entity=BRCH&entity=ATM&entity=MCD&lat=38.833797454833984&lng=-104.82144927978516&distance=1000&callback=myJsonpCallback,Loaf N Jug 2,120 S Santa Fe Ave,Pueblo,CO,81003,ATMKR002518,<MISSING>,38.267300,-104.606452,12:00am - 12:00am Sun-Sat,USA,ATM
key.com,https://www.key.com/loc/DirectorServlet?action=getEntities&entity=BRCH&entity=ATM&entity=MCD&lat=38.833797454833984&lng=-104.82144927978516&distance=1000&callback=myJsonpCallback,Loaf N Jug,120 S Santa Fe,Pueblo,CO,81003,ATMKR002934,<MISSING>,38.267300,-104.606452,12:00am - 12:00am Sun-Sat,USA,ATM
key.com,https://www.key.com/loc/DirectorServlet?action=getEntities&entity=BRCH&entity=ATM&entity=MCD&lat=38.833797454833984&lng=-104.82144927978516&distance=1000&callback=myJsonpCallback,Loaf N Jug,2119 E 4th St,Pueblo,CO,81001,ATMKR002521,<MISSING>,38.271891,-104.572362,12:00am - 12:00am Sun-Sat,USA,ATM
key.com,https://www.key.com/loc/DirectorServlet?action=getEntities&entity=BRCH&entity=ATM&entity=MCD&lat=38.833797454833984&lng=-104.82144927978516&distance=1000&callback=myJsonpCallback,Loaf N Jug,1104 Pueblo Blvd Way,Pueblo,CO,81005,ATMKR002287,<MISSING>,38.246568,-104.662672,12:00am - 12:00am Sun-Sat,USA,ATM
key.com,https://www.key.com/loc/DirectorServlet?action=getEntities&entity=BRCH&entity=ATM&entity=MCD&lat=38.833797454833984&lng=-104.82144927978516&distance=1000&callback=myJsonpCallback,the Trading Post,1153 S Prairie Ave,Pueblo,CO,81005,ATMCT005290,<MISSING>,38.246718,-104.645563,12:00am - 12:00am Sun-Sat,USA,ATM
key.com,https://www.key.com/loc/DirectorServlet?action=getEntities&entity=BRCH&entity=ATM&entity=MCD&lat=38.833797454833984&lng=-104.82144927978516&distance=1000&callback=myJsonpCallback,Sunset Bowl,1227 S Prairie Ave,Pueblo,CO,81005,ATMP367507,<MISSING>,38.244892,-104.645778,12:00am - 12:00am Sun-Sat,USA,ATM
key.com,https://www.key.com/loc/DirectorServlet?action=getEntities&entity=BRCH&entity=ATM&entity=MCD&lat=38.833797454833984&lng=-104.82144927978516&distance=1000&callback=myJsonpCallback,Safeway,1231 S Prairie Ave,Pueblo,CO,81005,ATMSW510006,<MISSING>,38.244861,-104.644308,12:00am - 12:00am Sun-Sat,USA,ATM
key.com,https://www.key.com/loc/DirectorServlet?action=getEntities&entity=BRCH&entity=ATM&entity=MCD&lat=38.833797454833984&lng=-104.82144927978516&distance=1000&callback=myJsonpCallback,Loaf N Jug,2405 W Northern Ave,Pueblo,CO,81004,ATMKR002310,<MISSING>,38.244526,-104.638956,12:00am - 12:00am Sun-Sat,USA,ATM
key.com,https://www.key.com/loc/DirectorServlet?action=getEntities&entity=BRCH&entity=ATM&entity=MCD&lat=38.833797454833984&lng=-104.82144927978516&distance=1000&callback=myJsonpCallback,Walgreens,2900 W Northern Ave,Pueblo,CO,81005,ATMWG004721,<MISSING>,38.243316,-104.644561,12:00am - 12:00am Sun-Sat,USA,ATM
key.com,https://www.key.com/loc/DirectorServlet?action=getEntities&entity=BRCH&entity=ATM&entity=MCD&lat=38.833797454833984&lng=-104.82144927978516&distance=1000&callback=myJsonpCallback,Loaf N Jug,4125 W Northern Ave,Pueblo,CO,81005,ATMKR002325,<MISSING>,38.233794,-104.666348,12:00am - 12:00am Sun-Sat,USA,ATM
key.com,https://www.key.com/loc/DirectorServlet?action=getEntities&entity=BRCH&entity=ATM&entity=MCD&lat=38.833797454833984&lng=-104.82144927978516&distance=1000&callback=myJsonpCallback,Loaf N Jug,3980 IVywood Ln,Pueblo,CO,81005,ATMKR002308,<MISSING>,38.232661,-104.661934,12:00am - 12:00am Sun-Sat,USA,ATM
key.com,https://www.key.com/loc/DirectorServlet?action=getEntities&entity=BRCH&entity=ATM&entity=MCD&lat=38.833797454833984&lng=-104.82144927978516&distance=1000&callback=myJsonpCallback,Loaf N Jug,31918 E State Hwy 96,Pueblo,CO,81006,ATMKR002320,<MISSING>,38.274590,-104.492464,12:00am - 12:00am Sun-Sat,USA,ATM
key.com,https://www.key.com/loc/DirectorServlet?action=getEntities&entity=BRCH&entity=ATM&entity=MCD&lat=38.833797454833984&lng=-104.82144927978516&distance=1000&callback=myJsonpCallback,Loaf N Jug,1700 Santa Fe Dr,Pueblo,CO,81006,ATMKR002538,<MISSING>,38.245141,-104.579407,12:00am - 12:00am Sun-Sat,USA,ATM
key.com,https://www.key.com/loc/DirectorServlet?action=getEntities&entity=BRCH&entity=ATM&entity=MCD&lat=38.833797454833984&lng=-104.82144927978516&distance=1000&callback=myJsonpCallback,Loaf N Jug,2050 Lake Ave,Pueblo,CO,81004,ATMKR002296,<MISSING>,38.231694,-104.624055,12:00am - 12:00am Sun-Sat,USA,ATM
key.com,https://www.key.com/loc/DirectorServlet?action=getEntities&entity=BRCH&entity=ATM&entity=MCD&lat=38.833797454833984&lng=-104.82144927978516&distance=1000&callback=myJsonpCallback,Loaf N Jug,2610 Santa Fe Dr,Pueblo,CO,81006,ATMKR002299,<MISSING>,38.245112,-104.565435,12:00am - 12:00am Sun-Sat,USA,ATM
key.com,https://www.key.com/loc/DirectorServlet?action=getEntities&entity=BRCH&entity=ATM&entity=MCD&lat=38.833797454833984&lng=-104.82144927978516&distance=1000&callback=myJsonpCallback,Loaf N Jug,1201 W Pueblo Blvd,Pueblo,CO,81004,ATMKR002343,<MISSING>,38.219345,-104.625711,12:00am - 12:00am Sun-Sat,USA,ATM
key.com,https://www.key.com/loc/DirectorServlet?action=getEntities&entity=BRCH&entity=ATM&entity=MCD&lat=38.833797454833984&lng=-104.82144927978516&distance=1000&callback=myJsonpCallback,Castle Pines,7288 Lagae Rd,Castle Pines,CO,80108,BRCH06180964,303-660-2780,39.469727,-104.880394,9:00am - 5:00pm Mon - Thu 9:00am - 6:00pm Fri,USA,branch
key.com,https://www.key.com/loc/DirectorServlet?action=getEntities&entity=BRCH&entity=ATM&entity=MCD&lat=38.833797454833984&lng=-104.82144927978516&distance=1000&callback=myJsonpCallback,Castle Pines,7288 Lague Rd,Castle Pines,CO,80108,ATMKB0746,<MISSING>,39.469835,-104.880440,24 Hour Access,USA,ATM
key.com,https://www.key.com/loc/DirectorServlet?action=getEntities&entity=BRCH&entity=ATM&entity=MCD&lat=38.833797454833984&lng=-104.82144927978516&distance=1000&callback=myJsonpCallback,Walgreens,7370 Lagae Rd,Castle Rock,CO,80108,ATMWL007837,<MISSING>,39.470196,-104.882733,12:00am - 12:00am Sun-Sat,USA,ATM
key.com,https://www.key.com/loc/DirectorServlet?action=getEntities&entity=BRCH&entity=ATM&entity=MCD&lat=38.833797454833984&lng=-104.82144927978516&distance=1000&callback=myJsonpCallback,Walgreens,13143 S Parker Rd,Parker,CO,80134,ATMWL007138,<MISSING>,39.477845,-104.759021,12:00am - 12:00am Sun-Sat,USA,ATM
key.com,https://www.key.com/loc/DirectorServlet?action=getEntities&entity=BRCH&entity=ATM&entity=MCD&lat=38.833797454833984&lng=-104.82144927978516&distance=1000&callback=myJsonpCallback,Loaf N Jug,36031 E US Hwy 50,Pueblo,CO,81006,ATMKR002508,<MISSING>,38.245729,-104.458917,12:00am - 12:00am Sun-Sat,USA,ATM
key.com,https://www.key.com/loc/DirectorServlet?action=getEntities&entity=BRCH&entity=ATM&entity=MCD&lat=38.833797454833984&lng=-104.82144927978516&distance=1000&callback=myJsonpCallback,Safeway,8355 N Rampart Range Rd,Littleton,CO,80125,ATMSW000892,<MISSING>,39.483434,-105.075471,12:00am - 12:00am Sun-Sat,USA,ATM
key.com,https://www.key.com/loc/DirectorServlet?action=getEntities&entity=BRCH&entity=ATM&entity=MCD&lat=38.833797454833984&lng=-104.82144927978516&distance=1000&callback=myJsonpCallback,Safeway,8355 N Rampart Range Rd,Littleton,CO,80125,ATMSW001110,<MISSING>,39.483434,-105.075471,12:00am - 12:00am Sun-Sat,USA,ATM
key.com,https://www.key.com/loc/DirectorServlet?action=getEntities&entity=BRCH&entity=ATM&entity=MCD&lat=38.833797454833984&lng=-104.82144927978516&distance=1000&callback=myJsonpCallback,Target,11150 S Twenty Mile Rd,Parker,CO,80134,ATMA745,<MISSING>,39.513557,-104.772234,12:00am - 12:00am Sun-Sat,USA,ATM
key.com,https://www.key.com/loc/DirectorServlet?action=getEntities&entity=BRCH&entity=ATM&entity=MCD&lat=38.833797454833984&lng=-104.82144927978516&distance=1000&callback=myJsonpCallback,Safeway,11051 S Parker Rd,Parker,CO,80134,ATMSW001114,<MISSING>,39.516020,-104.766496,12:00am - 12:00am Sun-Sat,USA,ATM
key.com,https://www.key.com/loc/DirectorServlet?action=getEntities&entity=BRCH&entity=ATM&entity=MCD&lat=38.833797454833984&lng=-104.82144927978516&distance=1000&callback=myJsonpCallback,Parker Main,10951 S Parker Rd,Parker,CO,80134,ATMKB0726,<MISSING>,39.518070,-104.765686,24 Hour Access,USA,ATM
key.com,https://www.key.com/loc/DirectorServlet?action=getEntities&entity=BRCH&entity=ATM&entity=MCD&lat=38.833797454833984&lng=-104.82144927978516&distance=1000&callback=myJsonpCallback,Parker Main Street,10951 S Parker Road,Parker,CO,80134,BRCH06180986,303-840-7162,39.518070,-104.765686,9:00am - 5:00pm Mon - Thu 9:00am - 6:00pm Fri 9:00am - 12:00pm Sat,USA,branch
key.com,https://www.key.com/loc/DirectorServlet?action=getEntities&entity=BRCH&entity=ATM&entity=MCD&lat=38.833797454833984&lng=-104.82144927978516&distance=1000&callback=myJsonpCallback,Cvs,16920 Lincoln Ave,Parker,CO,80134,ATMVC510785,<MISSING>,39.533280,-104.792722,12:00am - 12:00am Sun-Sat,USA,ATM
key.com,https://www.key.com/loc/DirectorServlet?action=getEntities&entity=BRCH&entity=ATM&entity=MCD&lat=38.833797454833984&lng=-104.82144927978516&distance=1000&callback=myJsonpCallback,Walgreens,4175 E Wildcat Reserve Pkwy,Highlands Ranch,CO,80126,ATMWL002641,<MISSING>,39.528414,-104.941141,12:00am - 12:00am Sun-Sat,USA,ATM
key.com,https://www.key.com/loc/DirectorServlet?action=getEntities&entity=BRCH&entity=ATM&entity=MCD&lat=38.833797454833984&lng=-104.82144927978516&distance=1000&callback=myJsonpCallback,K & G Conoco,10011 Jordan Rd,Parker,CO,80134,ATMP207699,<MISSING>,39.534344,-104.794365,12:00am - 12:00am Sun-Sat,USA,ATM
key.com,https://www.key.com/loc/DirectorServlet?action=getEntities&entity=BRCH&entity=ATM&entity=MCD&lat=38.833797454833984&lng=-104.82144927978516&distance=1000&callback=myJsonpCallback,Loaf N Jug,243 E US Hwy 50,Avondale,CO,81022,ATMKR002303,<MISSING>,38.236793,-104.349511,12:00am - 12:00am Sun-Sat,USA,ATM
key.com,https://www.key.com/loc/DirectorServlet?action=getEntities&entity=BRCH&entity=ATM&entity=MCD&lat=38.833797454833984&lng=-104.82144927978516&distance=1000&callback=myJsonpCallback,Target,10001 Commons St,Lone Tree,CO,80124,ATMA744,<MISSING>,39.534978,-104.884315,12:00am - 12:00am Sun-Sat,USA,ATM
key.com,https://www.key.com/loc/DirectorServlet?action=getEntities&entity=BRCH&entity=ATM&entity=MCD&lat=38.833797454833984&lng=-104.82144927978516&distance=1000&callback=myJsonpCallback,Walgreens,19028 Lincoln Ave,Parker,CO,80134,ATMWL005261,<MISSING>,39.536176,-104.768584,12:00am - 12:00am Sun-Sat,USA,ATM
key.com,https://www.key.com/loc/DirectorServlet?action=getEntities&entity=BRCH&entity=ATM&entity=MCD&lat=38.833797454833984&lng=-104.82144927978516&distance=1000&callback=myJsonpCallback,Lone Tree,10470 Park Meadows Dr,Mentor,CO,80124,ATMKB0717,<MISSING>,39.536826,-104.873582,24 Hour Access,USA,ATM
key.com,https://www.key.com/loc/DirectorServlet?action=getEntities&entity=BRCH&entity=ATM&entity=MCD&lat=38.833797454833984&lng=-104.82144927978516&distance=1000&callback=myJsonpCallback,Lone Tree,10470 Park Meadows Dr,Lone Tree,CO,80124,BRCH06180561,303-262-8086,39.536876,-104.873481,9:00am - 5:00pm Mon - Thu 9:00am - 6:00pm Fri 9:00am - 12:00pm Sat,USA,branch
key.com,https://www.key.com/loc/DirectorServlet?action=getEntities&entity=BRCH&entity=ATM&entity=MCD&lat=38.833797454833984&lng=-104.82144927978516&distance=1000&callback=myJsonpCallback,Safeway,9229 E Lincoln Ave,Lone Tree,CO,80124,ATMSW001109,<MISSING>,39.537884,-104.883219,12:00am - 12:00am Sun-Sat,USA,ATM
key.com,https://www.key.com/loc/DirectorServlet?action=getEntities&entity=BRCH&entity=ATM&entity=MCD&lat=38.833797454833984&lng=-104.82144927978516&distance=1000&callback=myJsonpCallback,Walgreens,6650 Timberline Rd,Highlands Ranch,CO,80130,ATMWL005538,<MISSING>,39.541818,-104.912247,12:00am - 12:00am Sun-Sat,USA,ATM
key.com,https://www.key.com/loc/DirectorServlet?action=getEntities&entity=BRCH&entity=ATM&entity=MCD&lat=38.833797454833984&lng=-104.82144927978516&distance=1000&callback=myJsonpCallback,Loaf N Jug,9364 S Jordan Rd,Parker,CO,80134,ATMKR002388,<MISSING>,39.546265,-104.792646,12:00am - 12:00am Sun-Sat,USA,ATM
key.com,https://www.key.com/loc/DirectorServlet?action=getEntities&entity=BRCH&entity=ATM&entity=MCD&lat=38.833797454833984&lng=-104.82144927978516&distance=1000&callback=myJsonpCallback,Fairview,3626 Highlands Ranch Pkwy Ste 210,Highlands Ranch,CO,80126,BRCH06180158,720-344-2000,39.542137,-104.946945,9:00am - 5:00pm Mon - Thu 9:00am - 6:00pm Fri,USA,branch
key.com,https://www.key.com/loc/DirectorServlet?action=getEntities&entity=BRCH&entity=ATM&entity=MCD&lat=38.833797454833984&lng=-104.82144927978516&distance=1000&callback=myJsonpCallback,Fairview Highlands Ranch,3626 E Highlands Ranch Pkwy,Highlands Ranch,CO,80126,ATMKB0708,<MISSING>,39.542149,-104.946891,24 Hour Access,USA,ATM
key.com,https://www.key.com/loc/DirectorServlet?action=getEntities&entity=BRCH&entity=ATM&entity=MCD&lat=38.833797454833984&lng=-104.82144927978516&distance=1000&callback=myJsonpCallback,K & G Petroleum,9160 Crown Crest Blvd,Parker,CO,80138,ATMTX62104,<MISSING>,39.550715,-104.773901,12:00am - 12:00am Sun-Sat,USA,ATM
key.com,https://www.key.com/loc/DirectorServlet?action=getEntities&entity=BRCH&entity=ATM&entity=MCD&lat=38.833797454833984&lng=-104.82144927978516&distance=1000&callback=myJsonpCallback,Walgreens,9390 S University Blvd,Highlands Ranch,CO,80126,ATMWL003489,<MISSING>,39.545843,-104.944849,12:00am - 12:00am Sun-Sat,USA,ATM
key.com,https://www.key.com/loc/DirectorServlet?action=getEntities&entity=BRCH&entity=ATM&entity=MCD&lat=38.833797454833984&lng=-104.82144927978516&distance=1000&callback=myJsonpCallback,Loaf N Jug,9028 Woodman Dr,Parker,CO,80134,ATMKR002341,<MISSING>,39.554027,-104.778509,12:00am - 12:00am Sun-Sat,USA,ATM
key.com,https://www.key.com/loc/DirectorServlet?action=getEntities&entity=BRCH&entity=ATM&entity=MCD&lat=38.833797454833984&lng=-104.82144927978516&distance=1000&callback=myJsonpCallback,Costco,18414 Cottonwood Dr,Parker,CO,80134,ATMCW001217,<MISSING>,39.555938,-104.775737,12:00am - 12:00am Sun-Sat,USA,ATM
key.com,https://www.key.com/loc/DirectorServlet?action=getEntities&entity=BRCH&entity=ATM&entity=MCD&lat=38.833797454833984&lng=-104.82144927978516&distance=1000&callback=myJsonpCallback,Yosemite Park Meadows*,9179 Park Meadows Dr,Lone Tree,CO,80214,ATMKB0764,<MISSING>,39.555387,-104.882292,24 Hour Access,USA,ATM
key.com,https://www.key.com/loc/DirectorServlet?action=getEntities&entity=BRCH&entity=ATM&entity=MCD&lat=38.833797454833984&lng=-104.82144927978516&distance=1000&callback=myJsonpCallback,American Furniture Warehouse,8820 American Way,Englewood,CO,80112,ATMTX62110,<MISSING>,39.559082,-104.823561,12:00am - 12:00am Sun-Sat,USA,ATM
key.com,https://www.key.com/loc/DirectorServlet?action=getEntities&entity=BRCH&entity=ATM&entity=MCD&lat=38.833797454833984&lng=-104.82144927978516&distance=1000&callback=myJsonpCallback,Funugyz,17785 Cottonwood Dr,Parker,CO,80134,ATMTX83635,<MISSING>,39.558611,-104.782836,12:00am - 12:00am Sun-Sat,USA,ATM
key.com,https://www.key.com/loc/DirectorServlet?action=getEntities&entity=BRCH&entity=ATM&entity=MCD&lat=38.833797454833984&lng=-104.82144927978516&distance=1000&callback=myJsonpCallback,Costco,8686 Park Meadows Dr,Littleton,CO,80124,ATMCW001286,<MISSING>,39.558098,-104.878243,12:00am - 12:00am Sun-Sat,USA,ATM
key.com,https://www.key.com/loc/DirectorServlet?action=getEntities&entity=BRCH&entity=ATM&entity=MCD&lat=38.833797454833984&lng=-104.82144927978516&distance=1000&callback=myJsonpCallback,Safeway,9255 S Broadway,Highlands Ranch,CO,80129,ATMSW001112,<MISSING>,39.547796,-104.994201,12:00am - 12:00am Sun-Sat,USA,ATM
key.com,https://www.key.com/loc/DirectorServlet?action=getEntities&entity=BRCH&entity=ATM&entity=MCD&lat=38.833797454833984&lng=-104.82144927978516&distance=1000&callback=myJsonpCallback,Town Center Littleton,9309 Dorchester St,Littleton,CO,80129,ATMKB0471,<MISSING>,39.547567,-105.000382,24 Hour Access,USA,ATM
key.com,https://www.key.com/loc/DirectorServlet?action=getEntities&entity=BRCH&entity=ATM&entity=MCD&lat=38.833797454833984&lng=-104.82144927978516&distance=1000&callback=myJsonpCallback,Walgreens,9141 S Broadway,Highlands Ranch,CO,80129,ATMWL004952,<MISSING>,39.550014,-104.992549,12:00am - 12:00am Sun-Sat,USA,ATM
key.com,https://www.key.com/loc/DirectorServlet?action=getEntities&entity=BRCH&entity=ATM&entity=MCD&lat=38.833797454833984&lng=-104.82144927978516&distance=1000&callback=myJsonpCallback,Town Center,9309 Dorchester St,Highlands Ranch,CO,80129-2522,BRCH06180568,303-346-4680,39.553230,-104.969643,9:00am - 5:00pm Mon - Thu 9:00am - 6:00pm Fri 9:00am - 12:00pm Sat,USA,branch
key.com,https://www.key.com/loc/DirectorServlet?action=getEntities&entity=BRCH&entity=ATM&entity=MCD&lat=38.833797454833984&lng=-104.82144927978516&distance=1000&callback=myJsonpCallback,Park Meadows Mall 1,8401 Park Meadows Center Dr,Lone Tree,CO,80124,ATMCT004143,<MISSING>,39.562645,-104.876588,12:00am - 12:00am Sun-Sat,USA,ATM
key.com,https://www.key.com/loc/DirectorServlet?action=getEntities&entity=BRCH&entity=ATM&entity=MCD&lat=38.833797454833984&lng=-104.82144927978516&distance=1000&callback=myJsonpCallback,Park Meadows Mall 2,8401 Park Meadows Center Dr,Lone Tree,CO,80124,ATMCT004144,<MISSING>,39.562645,-104.876588,12:00am - 12:00am Sun-Sat,USA,ATM
key.com,https://www.key.com/loc/DirectorServlet?action=getEntities&entity=BRCH&entity=ATM&entity=MCD&lat=38.833797454833984&lng=-104.82144927978516&distance=1000&callback=myJsonpCallback,Park Meadows Mall 3,8401 Park Meadows Center Dr,Lone Tree,CO,80124,ATMCT004145,<MISSING>,39.562645,-104.876588,12:00am - 12:00am Sun-Sat,USA,ATM
key.com,https://www.key.com/loc/DirectorServlet?action=getEntities&entity=BRCH&entity=ATM&entity=MCD&lat=38.833797454833984&lng=-104.82144927978516&distance=1000&callback=myJsonpCallback,Target,1265 Sgt Jon Stiles Dr,Highlands Ranch,CO,80129,ATMA73F,<MISSING>,39.549865,-105.005792,12:00am - 12:00am Sun-Sat,USA,ATM
key.com,https://www.key.com/loc/DirectorServlet?action=getEntities&entity=BRCH&entity=ATM&entity=MCD&lat=38.833797454833984&lng=-104.82144927978516&distance=1000&callback=myJsonpCallback,Nordstrom,8465 Park Meadows Dr,Littleton,CO,80124,ATMNO000037,<MISSING>,39.562464,-104.899013,12:00am - 12:00am Sun-Sat,USA,ATM
key.com,https://www.key.com/loc/DirectorServlet?action=getEntities&entity=BRCH&entity=ATM&entity=MCD&lat=38.833797454833984&lng=-104.82144927978516&distance=1000&callback=myJsonpCallback,Walgreens,8158 S Quebec St,Englewood,CO,80112,ATMWL003091,<MISSING>,39.568037,-104.905424,12:00am - 12:00am Sun-Sat,USA,ATM
key.com,https://www.key.com/loc/DirectorServlet?action=getEntities&entity=BRCH&entity=ATM&entity=MCD&lat=38.833797454833984&lng=-104.82144927978516&distance=1000&callback=myJsonpCallback,Target,1950 E County Line Rd,Highlands Ranch,CO,80124,ATMA740,<MISSING>,39.565301,-104.966369,12:00am - 12:00am Sun-Sat,USA,ATM
key.com,https://www.key.com/loc/DirectorServlet?action=getEntities&entity=BRCH&entity=ATM&entity=MCD&lat=38.833797454833984&lng=-104.82144927978516&distance=1000&callback=myJsonpCallback,Broncos Parkway,15590 E Broncos Pkwy,Centennial,CO,80112,ATMKB0740,<MISSING>,39.575531,-104.807479,24 Hour Access,USA,ATM
key.com,https://www.key.com/loc/DirectorServlet?action=getEntities&entity=BRCH&entity=ATM&entity=MCD&lat=38.833797454833984&lng=-104.82144927978516&distance=1000&callback=myJsonpCallback,Broncos Parkway,15590 E Broncos Parkway,Centennial,CO,80112,BRCH06180625,303-784-6500,39.575531,-104.807479,9:00am - 5:00pm Mon - Thu 9:00am - 6:00pm Fri,USA,branch
key.com,https://www.key.com/loc/DirectorServlet?action=getEntities&entity=BRCH&entity=ATM&entity=MCD&lat=38.833797454833984&lng=-104.82144927978516&distance=1000&callback=myJsonpCallback,Wind Crest,3235 Mill Vista Rd,Highlands Ranch,CO,80129,ATMKB0733,<MISSING>,39.560238,-105.030797,24 Hour Access,USA,ATM
key.com,https://www.key.com/loc/DirectorServlet?action=getEntities&entity=BRCH&entity=ATM&entity=MCD&lat=38.833797454833984&lng=-104.82144927978516&distance=1000&callback=myJsonpCallback,Loaf N Jug,8080 S Broadway,Littleton,CO,80122,ATMKR002008,<MISSING>,39.568759,-104.987845,12:00am - 12:00am Sun-Sat,USA,ATM
key.com,https://www.key.com/loc/DirectorServlet?action=getEntities&entity=BRCH&entity=ATM&entity=MCD&lat=38.833797454833984&lng=-104.82144927978516&distance=1000&callback=myJsonpCallback,Walgreens,8959 E Dry Creek Rd,Centennial,CO,80112,ATMWL000704,<MISSING>,39.581215,-104.884869,12:00am - 12:00am Sun-Sat,USA,ATM
key.com,https://www.key.com/loc/DirectorServlet?action=getEntities&entity=BRCH&entity=ATM&entity=MCD&lat=38.833797454833984&lng=-104.82144927978516&distance=1000&callback=myJsonpCallback,Littleton,7940 S Broadway,Littleton,CO,80122,ATMKB0716,<MISSING>,39.572563,-104.987899,24 Hour Access,USA,ATM
key.com,https://www.key.com/loc/DirectorServlet?action=getEntities&entity=BRCH&entity=ATM&entity=MCD&lat=38.833797454833984&lng=-104.82144927978516&distance=1000&callback=myJsonpCallback,Littleton,7940 S Broadway,Littleton,CO,80122,BRCH06180082,303-798-0300,39.572563,-104.987899,9:00am - 5:00pm Mon - Thu 9:00am - 6:00pm Fri 9:00am - 12:00pm Sat,USA,branch
key.com,https://www.key.com/loc/DirectorServlet?action=getEntities&entity=BRCH&entity=ATM&entity=MCD&lat=38.833797454833984&lng=-104.82144927978516&distance=1000&callback=myJsonpCallback,Walgreens,100 East Mineral Dr,Littleton,CO,80122,ATMWG007807,<MISSING>,39.572859,-104.987793,12:00am - 12:00am Sun-Sat,USA,ATM
key.com,https://www.key.com/loc/DirectorServlet?action=getEntities&entity=BRCH&entity=ATM&entity=MCD&lat=38.833797454833984&lng=-104.82144927978516&distance=1000&callback=myJsonpCallback,Target,7400 S Gartrell Rd,Aurora,CO,80016,ATMA732,<MISSING>,39.581187,-104.721559,12:00am - 12:00am Sun-Sat,USA,ATM
key.com,https://www.key.com/loc/DirectorServlet?action=getEntities&entity=BRCH&entity=ATM&entity=MCD&lat=38.833797454833984&lng=-104.82144927978516&distance=1000&callback=myJsonpCallback,Safeway,181 W Mineral Ave,Littleton,CO,80120,ATMSW001303,<MISSING>,39.574742,-104.991868,12:00am - 12:00am Sun-Sat,USA,ATM
key.com,https://www.key.com/loc/DirectorServlet?action=getEntities&entity=BRCH&entity=ATM&entity=MCD&lat=38.833797454833984&lng=-104.82144927978516&distance=1000&callback=myJsonpCallback,Target,15700 E Briarwood Cir,Aurora,CO,80016,ATMA735,<MISSING>,39.591406,-104.804441,12:00am - 12:00am Sun-Sat,USA,ATM
key.com,https://www.key.com/loc/DirectorServlet?action=getEntities&entity=BRCH&entity=ATM&entity=MCD&lat=38.833797454833984&lng=-104.82144927978516&distance=1000&callback=myJsonpCallback,Safeway,6900 S Yosemite St,Centennial,CO,80112,ATMSW000941,<MISSING>,39.591009,-104.884247,12:00am - 12:00am Sun-Sat,USA,ATM
key.com,https://www.key.com/loc/DirectorServlet?action=getEntities&entity=BRCH&entity=ATM&entity=MCD&lat=38.833797454833984&lng=-104.82144927978516&distance=1000&callback=myJsonpCallback,Chatfield,7323 W Chatfield Ave,Littleton,CO,80128,BRCH06180387,720-922-2240,39.566711,-105.079376,9:00am - 5:00pm Mon - Thu 9:00am - 6:00pm Fri 9:00am - 12:00pm Sat,USA,branch
key.com,https://www.key.com/loc/DirectorServlet?action=getEntities&entity=BRCH&entity=ATM&entity=MCD&lat=38.833797454833984&lng=-104.82144927978516&distance=1000&callback=myJsonpCallback,Chatfield Du,7323 W Chatfield Ave,Littleton,CO,80128,ATMKB0472,<MISSING>,39.566711,-105.079376,24 Hour Access,USA,ATM
key.com,https://www.key.com/loc/DirectorServlet?action=getEntities&entity=BRCH&entity=ATM&entity=MCD&lat=38.833797454833984&lng=-104.82144927978516&distance=1000&callback=myJsonpCallback,Walgreens,7443 W Chatfield Ave,Littleton,CO,80128,ATMWL009607,<MISSING>,39.566756,-105.080170,12:00am - 12:00am Sun-Sat,USA,ATM
key.com,https://www.key.com/loc/DirectorServlet?action=getEntities&entity=BRCH&entity=ATM&entity=MCD&lat=38.833797454833984&lng=-104.82144927978516&distance=1000&callback=myJsonpCallback,K & G Conoco,8286 S Wadsworth Blvd,Littleton,CO,80128,ATMP207705,<MISSING>,39.566637,-105.081867,12:00am - 12:00am Sun-Sat,USA,ATM
key.com,https://www.key.com/loc/DirectorServlet?action=getEntities&entity=BRCH&entity=ATM&entity=MCD&lat=38.833797454833984&lng=-104.82144927978516&distance=1000&callback=myJsonpCallback,Target,6767 S Clinton St,Englewood,CO,80112,ATMA73D,<MISSING>,39.592850,-104.881883,12:00am - 12:00am Sun-Sat,USA,ATM
key.com,https://www.key.com/loc/DirectorServlet?action=getEntities&entity=BRCH&entity=ATM&entity=MCD&lat=38.833797454833984&lng=-104.82144927978516&distance=1000&callback=myJsonpCallback,Walgreens,16440 E Arapahoe Rd,Foxfield,CO,80016,ATMWL007451,<MISSING>,39.594320,-104.797502,12:00am - 12:00am Sun-Sat,USA,ATM
key.com,https://www.key.com/loc/DirectorServlet?action=getEntities&entity=BRCH&entity=ATM&entity=MCD&lat=38.833797454833984&lng=-104.82144927978516&distance=1000&callback=myJsonpCallback,Arapahoe,9250 E Arapahoe Rd,Englewood,CO,80112,BRCH06180014,303-799-6664,39.594471,-104.881241,9:00am - 5:00pm Mon - Thu 9:00am - 6:00pm Fri 9:00am - 12:00pm Sat,USA,branch
key.com,https://www.key.com/loc/DirectorServlet?action=getEntities&entity=BRCH&entity=ATM&entity=MCD&lat=38.833797454833984&lng=-104.82144927978516&distance=1000&callback=myJsonpCallback,Arapahoe,9250 E Arapahoe Rd,Englewood,CO,80112,ATMKB0724,<MISSING>,39.594490,-104.881169,24 Hour Access,USA,ATM
key.com,https://www.key.com/loc/DirectorServlet?action=getEntities&entity=BRCH&entity=ATM&entity=MCD&lat=38.833797454833984&lng=-104.82144927978516&distance=1000&callback=myJsonpCallback,Albertsons,8434 S Kipling Pkwy,Littleton,CO,80128,ATMSW000990,<MISSING>,39.563397,-105.107403,12:00am - 12:00am Sun-Sat,USA,ATM
key.com,https://www.key.com/loc/DirectorServlet?action=getEntities&entity=BRCH&entity=ATM&entity=MCD&lat=38.833797454833984&lng=-104.82144927978516&distance=1000&callback=myJsonpCallback,Celebrity Lanes,15755 E Arapahoe Rd,Centennial,CO,80016,ATMP326496,<MISSING>,39.597814,-104.805474,12:00am - 12:00am Sun-Sat,USA,ATM
key.com,https://www.key.com/loc/DirectorServlet?action=getEntities&entity=BRCH&entity=ATM&entity=MCD&lat=38.833797454833984&lng=-104.82144927978516&distance=1000&callback=myJsonpCallback,K & G Conoco,10038 W Remington Ave,Littleton,CO,80127,ATMP207700,<MISSING>,39.564420,-105.110938,12:00am - 12:00am Sun-Sat,USA,ATM
key.com,https://www.key.com/loc/DirectorServlet?action=getEntities&entity=BRCH&entity=ATM&entity=MCD&lat=38.833797454833984&lng=-104.82144927978516&distance=1000&callback=myJsonpCallback,Safeway,7375 E Arapahoe Rd,Englewood,CO,80112,ATMSW001108,<MISSING>,39.596349,-104.903482,12:00am - 12:00am Sun-Sat,USA,ATM
key.com,https://www.key.com/loc/DirectorServlet?action=getEntities&entity=BRCH&entity=ATM&entity=MCD&lat=38.833797454833984&lng=-104.82144927978516&distance=1000&callback=myJsonpCallback,Walgreens,24250 E Smoky Hill Rd,Aurora,CO,80016,ATMWL001615,<MISSING>,39.596495,-104.705516,12:00am - 12:00am Sun-Sat,USA,ATM
key.com,https://www.key.com/loc/DirectorServlet?action=getEntities&entity=BRCH&entity=ATM&entity=MCD&lat=38.833797454833984&lng=-104.82144927978516&distance=1000&callback=myJsonpCallback,Walgreens,2281 E Arapahoe Rd,Centennial,CO,80122,ATMWL000455,<MISSING>,39.595631,-104.961573,12:00am - 12:00am Sun-Sat,USA,ATM
key.com,https://www.key.com/loc/DirectorServlet?action=getEntities&entity=BRCH&entity=ATM&entity=MCD&lat=38.833797454833984&lng=-104.82144927978516&distance=1000&callback=myJsonpCallback,Safeway,6100 S Gun Club Rd,Aurora,CO,80016,ATMSW000988,<MISSING>,39.604656,-104.714743,12:00am - 12:00am Sun-Sat,USA,ATM
key.com,https://www.key.com/loc/DirectorServlet?action=getEntities&entity=BRCH&entity=ATM&entity=MCD&lat=38.833797454833984&lng=-104.82144927978516&distance=1000&callback=myJsonpCallback,Smoky Hill,20290 E Smoky Hill Rd,Centennial,CO,80015,ATMKB0718,<MISSING>,39.609959,-104.752113,24 Hour Access,USA,ATM
key.com,https://www.key.com/loc/DirectorServlet?action=getEntities&entity=BRCH&entity=ATM&entity=MCD&lat=38.833797454833984&lng=-104.82144927978516&distance=1000&callback=myJsonpCallback,Smoky Hill,20290 E Smoky Hill Rd,Centennial,CO,80015,BRCH06180553,720-587-6362,39.609959,-104.752113,9:00am - 5:00pm Mon - Thu 9:00am - 6:00pm Fri 9:00am - 12:00pm Sat,USA,branch
key.com,https://www.key.com/loc/DirectorServlet?action=getEntities&entity=BRCH&entity=ATM&entity=MCD&lat=38.833797454833984&lng=-104.82144927978516&distance=1000&callback=myJsonpCallback,Loaf N Jug,5950 S Holly St,Englewood,CO,80111,ATMKR002284,<MISSING>,39.608198,-104.922426,12:00am - 12:00am Sun-Sat,USA,ATM
key.com,https://www.key.com/loc/DirectorServlet?action=getEntities&entity=BRCH&entity=ATM&entity=MCD&lat=38.833797454833984&lng=-104.82144927978516&distance=1000&callback=myJsonpCallback,Walgreens,20051 E Smoky Hill Rd,Aurora,CO,80015,ATMWL004470,<MISSING>,39.612101,-104.754389,12:00am - 12:00am Sun-Sat,USA,ATM
key.com,https://www.key.com/loc/DirectorServlet?action=getEntities&entity=BRCH&entity=ATM&entity=MCD&lat=38.833797454833984&lng=-104.82144927978516&distance=1000&callback=myJsonpCallback,Loaf N Jug,173 Bull Dogger Rd,Bailey,CO,80421,ATMKR002536,<MISSING>,39.439988,-105.453669,12:00am - 12:00am Sun-Sat,USA,ATM
key.com,https://www.key.com/loc/DirectorServlet?action=getEntities&entity=BRCH&entity=ATM&entity=MCD&lat=38.833797454833984&lng=-104.82144927978516&distance=1000&callback=myJsonpCallback,Loaf N Jug,19853 E Smoky Hill Rd,Centennial,CO,80015,ATMKR002305,<MISSING>,39.613236,-104.756514,12:00am - 12:00am Sun-Sat,USA,ATM
key.com,https://www.key.com/loc/DirectorServlet?action=getEntities&entity=BRCH&entity=ATM&entity=MCD&lat=38.833797454833984&lng=-104.82144927978516&distance=1000&callback=myJsonpCallback,Walgreens,7496 S Simms St,Littleton,CO,80127,ATMWL003510,<MISSING>,39.581401,-105.128307,12:00am - 12:00am Sun-Sat,USA,ATM
key.com,https://www.key.com/loc/DirectorServlet?action=getEntities&entity=BRCH&entity=ATM&entity=MCD&lat=38.833797454833984&lng=-104.82144927978516&distance=1000&callback=myJsonpCallback,Ken Caryl,7551 Shaffer Pkwy,Littleton,CO,80127,ATMKB0739,<MISSING>,39.579479,-105.137474,24 Hour Access,USA,ATM
key.com,https://www.key.com/loc/DirectorServlet?action=getEntities&entity=BRCH&entity=ATM&entity=MCD&lat=38.833797454833984&lng=-104.82144927978516&distance=1000&callback=myJsonpCallback,Ken Caryl,7551 Shaffer Parkway,Littleton,CO,80127,BRCH06180343,720-922-2200,39.579479,-105.137474,9:00am - 5:00pm Mon - Thu 9:00am - 6:00pm Fri,USA,branch
key.com,https://www.key.com/loc/DirectorServlet?action=getEntities&entity=BRCH&entity=ATM&entity=MCD&lat=38.833797454833984&lng=-104.82144927978516&distance=1000&callback=myJsonpCallback,Badger Basin Country Store,12551 US Hwy 24,Hartsel,CO,80449,ATMCR011156,<MISSING>,39.021491,-105.798124,12:00am - 12:00am Sun-Sat,USA,ATM
key.com,https://www.key.com/loc/DirectorServlet?action=getEntities&entity=BRCH&entity=ATM&entity=MCD&lat=38.833797454833984&lng=-104.82144927978516&distance=1000&callback=myJsonpCallback,Walgreens,6789 W Coal Mine Ave,Littleton,CO,80123,ATMWL006284,<MISSING>,39.595860,-105.072044,12:00am - 12:00am Sun-Sat,USA,ATM
key.com,https://www.key.com/loc/DirectorServlet?action=getEntities&entity=BRCH&entity=ATM&entity=MCD&lat=38.833797454833984&lng=-104.82144927978516&distance=1000&callback=myJsonpCallback,Safeway,27152 Main St,Conifer,CO,80433,ATMSW001302,<MISSING>,39.527292,-105.303393,12:00am - 12:00am Sun-Sat,USA,ATM
key.com,https://www.key.com/loc/DirectorServlet?action=getEntities&entity=BRCH&entity=ATM&entity=MCD&lat=38.833797454833984&lng=-104.82144927978516&distance=1000&callback=myJsonpCallback,Mirage Sports Bar,8340 W Coal Mine Ave,Littleton,CO,80123,ATMTX33813,<MISSING>,39.594275,-105.090336,12:00am - 12:00am Sun-Sat,USA,ATM
key.com,https://www.key.com/loc/DirectorServlet?action=getEntities&entity=BRCH&entity=ATM&entity=MCD&lat=38.833797454833984&lng=-104.82144927978516&distance=1000&callback=myJsonpCallback,Safeway,27102 Main St,Conifer,CO,80433,ATMSW000881,<MISSING>,39.529008,-105.303652,12:00am - 12:00am Sun-Sat,USA,ATM
key.com,https://www.key.com/loc/DirectorServlet?action=getEntities&entity=BRCH&entity=ATM&entity=MCD&lat=38.833797454833984&lng=-104.82144927978516&distance=1000&callback=myJsonpCallback,Walgreens,16950 E Smoky Hill Rd,Centennial,CO,80015,ATMWL003148,<MISSING>,39.625334,-104.790705,12:00am - 12:00am Sun-Sat,USA,ATM
key.com,https://www.key.com/loc/DirectorServlet?action=getEntities&entity=BRCH&entity=ATM&entity=MCD&lat=38.833797454833984&lng=-104.82144927978516&distance=1000&callback=myJsonpCallback,Belleview Promenade,8000 East Belleview Ave,Greenwood Village,CO,80111,BRCH06180624,303-804-2660,39.623714,-104.896011,9:00am - 5:00pm Mon - Thu 9:00am - 6:00pm Fri,USA,branch
key.com,https://www.key.com/loc/DirectorServlet?action=getEntities&entity=BRCH&entity=ATM&entity=MCD&lat=38.833797454833984&lng=-104.82144927978516&distance=1000&callback=myJsonpCallback,Belleview Promenade,8000 E Belleview Ave,Greenwood Village,CO,80111,ATMKB0741,<MISSING>,39.623714,-104.896011,24 Hour Access,USA,ATM
key.com,https://www.key.com/loc/DirectorServlet?action=getEntities&entity=BRCH&entity=ATM&entity=MCD&lat=38.833797454833984&lng=-104.82144927978516&distance=1000&callback=myJsonpCallback,Smoky Hill & Buckley,16796 E Smoky Hill Rd,Centennial,CO,80015,ATMKB0747,<MISSING>,39.626129,-104.792824,24 Hour Access,USA,ATM
key.com,https://www.key.com/loc/DirectorServlet?action=getEntities&entity=BRCH&entity=ATM&entity=MCD&lat=38.833797454833984&lng=-104.82144927978516&distance=1000&callback=myJsonpCallback,Smoky Hill & Buckley,16796 E Smoky Hill Road,Centennial,CO,80015,BRCH06180619,303-627-5640,39.626129,-104.792824,9:00am - 5:00pm Mon - Thu 9:00am - 6:00pm Fri 9:00am - 12:00pm Sat,USA,branch
key.com,https://www.key.com/loc/DirectorServlet?action=getEntities&entity=BRCH&entity=ATM&entity=MCD&lat=38.833797454833984&lng=-104.82144927978516&distance=1000&callback=myJsonpCallback,Loaf N Jug,26067 Conifer Rd,Conifer,CO,80433,ATMKR002524,<MISSING>,39.541789,-105.297777,12:00am - 12:00am Sun-Sat,USA,ATM
key.com,https://www.key.com/loc/DirectorServlet?action=getEntities&entity=BRCH&entity=ATM&entity=MCD&lat=38.833797454833984&lng=-104.82144927978516&distance=1000&callback=myJsonpCallback,Walgreens,123 E Belleview Ave,Englewood,CO,80113,ATMWL002423,<MISSING>,39.624573,-104.986705,12:00am - 12:00am Sun-Sat,USA,ATM
key.com,https://www.key.com/loc/DirectorServlet?action=getEntities&entity=BRCH&entity=ATM&entity=MCD&lat=38.833797454833984&lng=-104.82144927978516&distance=1000&callback=myJsonpCallback,Target,16910 E Quincy Ave,Aurora,CO,80015,ATMA734,<MISSING>,39.636207,-104.790402,12:00am - 12:00am Sun-Sat,USA,ATM
key.com,https://www.key.com/loc/DirectorServlet?action=getEntities&entity=BRCH&entity=ATM&entity=MCD&lat=38.833797454833984&lng=-104.82144927978516&distance=1000&callback=myJsonpCallback,As & Dc Conoco,16920 E Quincy Ave,Aurora,CO,80015,ATMP337567,<MISSING>,39.638101,-104.789878,12:00am - 12:00am Sun-Sat,USA,ATM
key.com,https://www.key.com/loc/DirectorServlet?action=getEntities&entity=BRCH&entity=ATM&entity=MCD&lat=38.833797454833984&lng=-104.82144927978516&distance=1000&callback=myJsonpCallback,Belleview West at Santa Fe,2950 W Belleview Ave,Littleton,CO,80123,ATMKB0748,<MISSING>,39.623604,-105.022484,24 Hour Access,USA,ATM
